latitude,longitude,name,address
22.3964110492981,114.199637684277,龐愛蘭議員辦事處,新界沙田火炭銀禧薈3樓310室
22.3751184242908,114.121984727576,明愛荃灣綜合家庭服務中心(東荃灣)─學生暢讀園,新界荃灣石圍角邨石桃樓A座地下
22.4514527782597,114.162424107598,流動圖書館五(太和邨服務站),新界大埔太和邨愛和樓太和商場出口
22.3700843366156,114.111034412543,香港青年協會荃灣青年空間,新界荃灣海盛路祈德尊新村商業中心2樓
22.3334245753279,114.173331332578,又一居(第26至33座)業主立案法團社區圖書館,九龍塘瑰麗路21-37號又一居第28座會所
22.2758796140657,114.238945165107,流動圖書館九(杏花村服務站),香港柴灣杏花村盛民里
22.2959125538497,114.016379185241,流動圖書館四(愉景灣服務站),新界愉景灣愉景廣場噴水池側
22.4052448109975,114.224079167443,流動圖書館五(富安花園服務站),新界沙田富安花園商場側之停車場
22.3796260497034,114.268499239494,西貢將軍澳婦女會(西貢婦女發展服務中心),西貢翠塘花園第十一座地下
22.378931365044,114.131555439562,流動圖書館一(象山邨服務站),新界荃灣象山邨秀山樓側
22.3701978476929,114.182598118717,流動圖書館二(新翠邨服務站),新界沙田新翠邨新傑樓側
22.3685817679623,114.126443889913,街坊工友服務處社區圖書館,新界葵涌葵涌邨曉葵樓地下街坊工友服務處
22.3540983529356,114.106459573321,青衣公共圖書館,新界青衣青綠街38號青衣市政大廈一樓
22.2271562258826,114.109568768162,南丫島北段公共圖書館,新界南丫島榕樹灣大街1號
22.4549353866165,114.169318750589,流動圖書館二(大元邨服務站),新界大埔大元邨泰民樓側
22.4601694323098,113.999280563419,毅智閱覽室,新界元朗天水圍第三十一區第一期
22.4023129564248,113.970180268722,大興公共圖書館,新界屯門大興邨商場二樓80號
22.3680140670791,114.059202150584,流動圖書館一(深井服務站),新界深井深井街巿停車場
22.3257238049126,114.254258671291,流動圖書館二(寶林邨服務站),新界將軍澳寶林邨寶寧樓(西座)側
22.4932586789322,114.125067486882,流動圖書館二(清河邨服務站),新界上水清河邨清照樓側
22.2971656351452,114.241438904111,流動圖書館七(高怡邨服務站),九龍油塘高怡邨高志樓側
22.3164862341342,114.265215261241,東港城住客會所:親子閱讀室,將軍澳東港城平台住客會所
22.2856660564988,114.137700763951,香港西區浸信會老人中心,香港西營盤第三街206號毓明閣一座地下高層
22.3647877091159,114.173055781269,流動圖書館五(顯徑邨服務站),新界沙田顯徑邨顯楊樓側
22.3665755893813,114.122133712712,協康會大窩口中心,新界荃灣大窩口邨富賢樓地下
22.3124513415908,114.230121575458,流動圖書館九(翠屏邨服務站),九龍觀塘翠屏(南)邨翠櫻樓側
22.3748586989071,113.962006365696,東華三院雷詠祥兒童中心親子繪本圖書館,新界屯門蝴蝶灣社區中心四字樓
22.5000920367414,114.125249595972,基督教香港信義會北區青少年綜合服務中心,新界上水彩園邨彩麗樓地下
22.4273654417102,114.24107062418,香港小童群益會馬鞍山東青少年綜合服務中心繪本圖書館,新界馬鞍山利安邨馬鞍山利安社區服務大樓二樓
22.4260238162297,114.230327029972,馬鞍山公共圖書館,新界沙田馬鞍山鞍駿街14號
22.3619249573155,114.170786885519,沙田茵社區圖書館,大圍顯徑村顯祐樓8號地下
22.3296175640422,114.209875118909,流動圖書館九(啟業邨服務站),九龍觀塘啟業邨啟寧樓側
22.3747669909758,114.124266668331,石圍角公共圖書館,新界荃灣石圍角邨石芳樓215-219室
22.4424493922871,114.162147203144,新峰花園二期,新界大埔馬窩路8號新峰花園二期會所
22.3167718749069,114.269575276953,流動圖書館五(明德邨服務站),新界將軍澳明德邨明道樓側
22.2809851323186,114.227060862354,流動圖書館九(愛東邨服務站),愛秩序灣愛東邨愛旭樓側
22.329640350984,114.188891230518,九龍城公共圖書館,九龍城衙前圍道100號九龍城市政大廈三樓
22.2840423139133,114.145910397923,鄭麗琼議員辦事處,香港半山般含道28號崇華大廈地下A1室
22.4040671845916,113.979258202218,何杏梅區議員辦事處,新界屯門青棉徑3號好勝大廈地下地舖1D
22.403864639316,113.980524904862,流動圖書館三(景峰花園服務站),新界屯門景峰花園商埸側停車埸
22.3845444505835,114.202956734387,晴碧花園業主立案法團-晴書閣,新界沙田得怡街6號晴碧花園P2會所
22.2587365380661,114.137145548895,陳岳鵬區議員辦事處,香港薄扶林置富花園第19座地下B室
22.5003951432286,114.14494800637,粉嶺公共圖書館,新界粉嶺和滿街9號二樓
22.3705989100525,114.138618892151,北葵涌公共圖書館,新界葵涌石蔭路北葵涌街市及圖書館三樓及四樓
22.3316572238379,114.171002711338,流動圖書館八(大坑東邨服務站),九龍深水埗大坑東道大坑東邨東龍樓側(舊2C巴士站)
22.3184640746095,114.26495541794,靈實長者地區服務社區圖書館(厚德邨),將軍澳原德邨德康樓地下
22.4989610784483,114.07805045647,流動圖書館三(新田服務站),新界元朗新田青山公路新田郵政局側
22.2669855978961,113.996478772367,梅窩公共圖書館,新界大嶼山梅窩銀石街9號梅窩市政大廈地下
22.2059146240057,114.131719754029,南丫島南段公共圖書館,新界南丫島索罟灣第二街
22.3072716730145,114.187355898043,紅磡公共圖書館,九龍紅磡馬頭圍道11號紅磡市政大廈六樓
22.286594196859,114.22357147485,流動圖書館九(鯉景灣服務站),香港鯉景灣太康街逸星閣側
22.4476344288489,114.174568087745,流動圖書館十(廣福邨服務站),新界大埔廣福邨廣祐樓側
22.4461251299785,114.16657674802,大埔公共圖書館,新界大埔鄉事會街8號大埔綜合大樓五樓
22.2444805460981,114.155416168194,鴨脷洲公共圖書館,香港鴨脷洲洪聖街8號鴨脷洲市政大廈五樓
22.2857386480828,114.139165993658,黃堅成議員辦事處,香港西營盤第三街162號觀海閣地下A鋪
22.2820521324623,114.222363833912,欣景花園圖書館,香港西灣河筲箕灣道一一一號欣景花園第一座四樓
22.346174204928,114.199425638758,樂群社會服務處慈雲山服務中心,九龍慈雲山雲華街45號慈雲山(南)社區中心六樓
22.3214408982881,114.231325633654,香港小童群益會秀茂坪青少年綜合服務中心,九龍官塘秀茂坪村秀樂樓地下
22.3695345459228,114.123793841525,流動圖書館五(大窩口邨服務站),新界大窩口大窩口邨富碧樓側
22.2913485113636,114.205462425758,北角公共圖書館,香港北角百福道北角街市大廈地下
22.4017335517098,113.969044864659,大興宿舍社區圖書館,新界屯門大興邨興昌樓地下
22.3700938503997,114.099846181573,流動圖書館五(灣景花園服務站),新界荃灣灣景花園第五座側
22.3401568836407,114.13848158277,荔枝角公共圖書館,九龍荔枝角荔灣道19號地下至一樓
22.3631288284883,114.131543073711,南葵涌公共圖書館,新界葵涌興芳路166-174號葵興政府合署四樓
22.3207816769795,114.170701304413,花園街公共圖書館,九龍旺角花園街123號A花園街市政大廈四至五樓
22.4339983993997,113.996860149603,流動圖書館十(洪水橋服務站),新界元朗洪水橋雅珊園第三座側
22.316185201038,114.179291090841,路德會包美達社區中心,九龍何文田忠孝街89號1-3樓
22.3181689825569,114.259413177243,將軍澳公共圖書館,新界將軍澳運隆路9號
22.3791149589146,114.135978332068,流動圖書館一(梨木樹服務站),新界荃灣梨木樹邨松樹樓側
22.2920617017245,114.238679629681,鯉魚門公共圖書館,九龍觀塘鯉魚門徑6號鯉魚門市政大廈一樓
22.4539281875336,114.028465435948,流動圖書館三(橫洲服務站),新界橫洲宏樂街東頭圍村公所側
22.5247027472302,114.160604664227,流動圖書館二(打鼓嶺服務站),新界打鼓嶺坪輋路打鼓嶺鄉村中心政府大樓側之停車場
22.3288925201618,114.155148024602,流動圖書館八(富昌邨服務站),九龍深水埗富昌邨富旺樓側
22.468172828144,114.208766212913,流動圖書館十(船灣服務站),新界大埔船灣聯村村公所廣場
22.3163960295192,114.164017138247,流動圖書館七(海富苑服務站),九龍旺角西海富苑海寧閣側
22.4837976753566,114.13853347478,流動圖書館二(昌盛苑服務站),新界粉嶺昌盛苑昌兆閣側
22.3051293371927,114.250816604575,流動圖書館五(健明邨服務站),新界將軍澳健明邨健晴樓側
22.4268015735967,114.241986339712,流動圖書館二(利安邨服務站),新界馬鞍山利安邨利華樓側
22.3806629581639,114.189245190134,沙田公共圖書館,新界沙田源禾路1號
22.2191560493913,114.212207989914,赤柱公共圖書館,香港赤柱赤柱市場道6號赤柱市政大廈地面上層
22.4473792465113,114.004737148357,屏山天水圍公共圖書館,天水圍聚星路一號屏山天水圍文化康樂大樓
22.3020252220834,114.178398003972,尖沙咀公共圖書館,九龍尖沙咀東部科學館道1號康宏廣場一樓
22.3696538702187,114.118879846027,仁濟醫院圓玄學院早期教育及訓練中心-家長圖書角,荃灣仁濟街18號仁濟醫院綜合服務大樓地下
22.3073415001134,114.233741591753,流動圖書館七(滙景花園服務站),九龍藍田滙景花園第A期近第4座車路側
22.3322124028234,114.14556587557,流動圖書館七(海麗邨服務站),九龍深水埗海麗邨海信樓側
22.229360376653,114.250870866352,流動圖書館六(石澳服務站),香港石澳海灘救護站旁
22.3790217834087,114.106578133381,流動圖書館一(荃景圍服務站),新界荃景圍遊樂場
22.321056972244,114.216154879462,牛頭角公共圖書館,九龍牛頭角道183號牛頭角市政大廈二至三樓
22.2906245181283,113.944260698847,東涌公共圖書館,新界大嶼山東涌文東路39號東涌市政大樓地下及1樓
22.3843459346667,114.27377511077,西貢區社區中心,西貢美源街8號
22.2830230268013,114.152858295937,坊眾便利圖書站,香港中環荷李活道57-59號利來商業大廈二樓坊眾社會服務中心
22.4058810857389,113.964066197828,基督教協基會屯門綜合青少年服務中心,新界屯門田景邨田翠樓地下1-10號
22.3074166718548,114.2530208751,匯彩閱覽室,將軍澳彩明苑彩富閣地下
22.4598606893511,114.171919383204,鄰舍輔導會,新界大埔富亨村富亨鄰里社區中心一樓
22.3855916758097,114.204840777376,沙田第一城社區圖書館,新界沙田第一城第34座側社區會堂地下
22.3449647885162,114.193872617913,救世軍竹園青少年中心,九龍黄大仙竹園南邨社區中心二至四字樓
22.4044901975345,113.97088601271,基督教宣道會屯門堂家庭服務處興耀服務中心,"新界屯門大興邨興耀樓地下26-29,32-35號"
22.3462732526275,114.128258539255,流動圖書館一(祖堯邨服務站),新界葵涌祖堯邨商場側
22.3316427637907,114.146569687165,海麗邨居民協會社區圖書館,九龍深水埗海麗邨海慧樓地下4號單位
22.3248713227923,114.256116965229,基督徒信望愛堂課餘托管中心,將軍澳寶林邨寶勤樓327-329室
22.3240488735052,114.247811803318,流動圖書館五(翠林邨服務站),新界將軍澳翠林邨彩林樓側
22.3710818009085,114.099867970261,黃偉傑區議員辦事處,新界荃灣麗城花園第二期第2座
22.3179019485956,114.228131030887,寶珮苑社區圖書館,九龍觀塘寶珮苑寶瑛閣地下閱覽室
22.333238972128,114.217206641696,黃大仙上邨及鳳凰新村老人服務中心,九龍黃大仙彩雲邨啟輝樓地下111-112號
22.2689457791359,114.185752118232,黃泥涌公共圖書館,香港跑馬地毓秀街2號黃泥涌市政大廈三樓
22.445279500177,114.027219500456,元朗公共圖書館,新界元朗橋樂坊2號元朗政府合署一樓
22.3091954075922,114.17043006277,油麻地公共圖書館,九龍油麻地上海街250號地下及閣樓
22.3568849468392,114.096270013636,流動圖書館十(長宏邨服務站),新界青衣長宏邨宏毅樓側
22.5021616633366,114.130749595402,上水公共圖書館,新界上水智昌路13號石湖墟市政大廈三樓
22.4317149079396,114.102963379612,流動圖書館三(上村服務站),新界元朗八鄉上村公園
22.3999920435297,113.977302236526,東華三院屯門綜合服務中心,新界屯門井財街27號井財街政府服務大樓二樓及三樓
22.2836892990332,114.211787548515,鰂魚涌公共圖書館,香港鰂魚涌街38號鰂魚涌市政大廈四至五樓
22.2807597218548,114.127756249007,葉國謙立法會議員辦事處社區圖書館,香港堅尼地城龍華街20號觀龍樓D座58號鋪
22.3022069797454,114.227436258279,鄰舍輔導會茶果嶺中心圖書館,九龍觀塘茶果嶺大街121-123號
22.3807452615978,113.978666782591,流動圖書館三(三聖邨服務站),新界屯門三聖邨滿漁樓側
22.3291434544465,114.162168800271,五聯辦社區圖書館,九龍深水埗汝州街213-221號捷興大廈1樓 A室
22.2196894034515,114.209618466002,明愛賽馬會赤柱青少年綜合服務,香港赤柱佳美道赤柱廣場停車場5樓
22.3188863942577,114.263860854666,流動圖書館二(厚德邨服務站),新界將軍澳厚德邨德澤樓側
22.376458384217,113.962979752561,蝴蝶邨公共圖書館,新界屯門蝴蝶邨蝶聚樓地下 123 –130 號
22.278155684527,114.230355030512,流動圖書館六(筲箕灣服務站),香港筲箕灣筲箕灣東大街筲箕灣街市前
22.3320062492374,114.163323615101,元州街公共圖書館,九龍元州街59-63號元州街市政大廈一樓
22.3187534263929,114.264266479534,中國基督教播道會厚恩堂家庭活動中心,將軍澳厚德邨德康樓側
22.3648457776565,114.135843655687,徐生雄議員圖書館,新界葵涌石文徑20號盈豐商業大廈1A室
22.2635745689813,114.249552871548,小西灣公共圖書館,小西灣小西灣道小西灣綜合大樓地下
22.4607353845574,113.996608012074,流動圖書館十(天華邨服務站),新界天水圍天華邨服務設施大樓停車場入口側
22.4131902463624,113.977455302272,流動圖書館三(兆康苑服務站),新界屯門兆康苑兆暉閣側
22.3643219762763,114.126167743116,流動圖書館一(葵盛東邨服務站),新界葵涌葵盛東邨盛安樓側
22.318515111843,114.176059064421,九龍公共圖書館,九龍何文田培正道5號
22.3445171006744,114.191543684643,流動圖書館七(竹園邨服務站),九龍黃大仙竹園(南)邨華園樓停車場
22.4927350228097,114.134736131278,流動圖書館二(嘉福邨服務站),新界粉嶺嘉福邨福泰樓側
22.418634224664,114.230181420735,流動圖書館二(耀安邨服務站),新界馬鞍山耀安邨耀平樓側
22.3349695184984,114.195965212981,新蒲崗公共圖書館,九龍新蒲崗崇齡街33號新蒲崗廣場三樓
22.4625199653538,113.999206643096,流動圖書館十(天悅邨服務站),新界天水圍天悅邨悅泰樓側
22.2414825063354,114.156551593027,利東社區圖書館,鴨脷洲利東邨東昇樓301-308室
22.3209631199584,114.228757220905,流動圖書館八(曉麗苑服務站),九龍秀茂坪曉麗苑曉晴閣側
22.3114538211575,114.259437373057,流動圖書館二(尚德邨服務站),新界將軍澳尚德邨商場側
22.2885943949521,113.942968602643,流動圖書館四(東涌富東邨服務站),新界東涌富東邨噴水池側
22.2798996885889,114.189663219143,香港中央圖書館,香港銅鑼灣高士威道66號
22.3822336555659,114.272326810814,西貢公共圖書館,新界西貢親民街34號西貢政府合署五樓
22.4052176057413,113.962212241009,流動圖書館三(良景邨服務站),新界屯門良景邨良智樓側
22.3617989140927,114.113541259717,路德會賽馬會海濱花園綜合服務中心,新界荃灣海濱花園怡樂徑2-12號二樓平台D
22.3595654245748,114.122865577248,流動圖書館一(盛西邨服務站),新界葵盛西邨葵盛泳池停車場
22.37427628992,114.115586322006,荃灣公共圖書館,新界荃灣西樓角路38號
22.4276090821808,114.24152726938,沙田居民協會,新界沙田馬鞍山利安邨利榮樓地下B翼
22.3842374831536,113.965915945305,流動圖書館十(龍門居服務站),新界屯門龍門居第一座側
22.3910241428375,113.976780933813,屯門公共圖書館,新界屯門屯喜路1號
22.4082779459795,114.22163953496,流動圖書館五(錦泰苑服務站),新界沙田錦泰苑錦基閣側
22.3296876952074,114.225436883001,順利邨公共圖書館,九龍觀塘順利邨道順利邨體育館三樓
22.3169283741159,114.222336315048,康樂社區圖書館,九龍觀塘通明街43號地鋪
22.4524265876955,114.166731727554,流動圖書館五(安浩里服務站),新界大埔安浩里八號花園側
22.4526808287369,114.161446629538,竹園區神召會太和康樂幼兒學校,新界大埔太和村鄰里社區中心三字樓
22.285719834298,114.136051130127,石塘咀公共圖書館,香港皇后大道西470號石塘咀市政大廈三至四樓
22.2431948627593,113.97680620549,流動圖書館四(貝澳服務站),新界大嶼山嶼南道與芝麻灣道交界具澳公共停車場
22.377481075854,114.177068578328,流動圖書館二(美林邨服務站),新界沙田美林邨美桃樓側
22.227507014536,113.932632339966,流動圖書館四(塘福服務站),新界大嶼山嶼南道塘福巴士總站側塘福公共停車場
22.3809326186842,114.214740395568,流動圖書館二(廣源邨服務站),新界沙田廣源邨社區會堂側
22.3241372430083,114.212525588182,德福社區圖書館,九龍灣德福花園平台I座地下
22.3940123225025,114.19415923971,流動圖書館二(穗禾苑服務站),新界沙田穗禾苑豐逸閣側運動場
22.3818559787488,113.974987937124,盧民漢區議員辦事處,新界屯門海榮路9號萬能閣621室
22.3171420791938,114.187987515845,土瓜灣公共圖書館,九龍馬頭圍道165號土瓜灣政府合署五至六樓
22.3611817749018,114.112644440195,流動圖書館一(海濱花園服務站),新界荃灣海濱花園海昇閣側
22.3488101303736,114.200102711512,慈雲山公共圖書館,九龍慈雲山毓華街23號慈雲山中心702號
22.2818166994324,114.12907553853,樂群社會服務處黃光漢社區服務中心便利圖書站,香港堅尼地城石山街12號堅尼地城社區綜合大樓13樓B室
22.3117844933692,114.259137669633,靈實長者地區服務社區圖書館(尚德邨),將軍澳尚德邨尚真樓地下C翼
22.5462421243916,114.224176593613,沙頭角公共圖書館,新界沙頭角邨第20座地下1號舖
22.3630375601067,114.128222629468,禮賢會葵盛東護理安老院,新界葵涌葵盛東邨盛樂樓地下及一樓
22.4627590856433,114.005718899148,伯裘書院-成才中心,新界元朗天水圍天華路51號
22.3344960813283,114.208888094297,牛池灣公共圖書館,九龍清水灣道11號牛池灣市政大廈五至六樓
22.3359799413729,114.166565409075,白田公共圖書館,九龍石硤尾白田邨商業中心1-6號地下
22.4624105458183,114.000715656298,香港青年協會賽馬會天悅青年空間,新界天水圍天悅邨服務設施大樓2字樓
22.3398719640407,114.164361547727,澤安邨屋邨諮詢管理委員會社區圖書館,九龍深水埗澤安邨康樂及消閒中心第三號舖
22.3456761131187,114.18630839669,流動圖書館六(翠竹花園服務站),九龍黃大仙翠竹花園第六座側
22.3533218147675,114.05979213189,中華基督教會馬灣基慧堂馬灣關愛社區中心,馬灣馬灣大街村( 北 )345號地下
22.360299943114,114.103104982283,流動圖書館一(長安邨服務站),新界青衣長安邨安潤樓側
22.3091924639162,114.239483002971,藍田公共圖書館,九龍藍田德田邨德樂樓地下B翼
22.3213952934998,114.163120808261,大角咀互助資源中心,九龍大角咀埃華街28號永利工業大廈6樓A室
22.4227110054838,114.226003417587,葛珮帆．楊文銳議員辦事處--睦鄰圖書館,馬鞍山頌安邨頌智樓地下DB01室
22.3233036260697,114.248321974268,西貢將軍澳婦女會翠林康怡綜合服務中心社區圖書館,將軍澳翠林邨欣林樓103-106號
22.3961613914911,113.965972740327,流動圖書館三(山景邨服務站),新界屯門山景邨景榮樓側
22.317245102318,114.239341979715,流動圖書館八(寶達邨服務站),九龍秀茂坪寶達邨達安樓側
22.4592962716922,114.171442363189,流動圖書館五(富亨邨服務站),新界大埔富亨邨亨翠樓側
22.3848530037961,114.190692426759,瀝源公共圖書館,新界沙田瀝源邨貴和樓地下101-110號
22.3310197952416,114.206324712094,潘進源議員辦事處社區圖書館,九龍灣麗晶花園第11座地下
22.3012648190694,114.236218683745,黎樹濠陳振彬馮錦照周耀明議員聯合辦事處圖書館,九龍油塘油麗邨逸麗樓D翼地下
22.2506177242481,114.136148610899,薄扶林公共圖書館,香港薄扶林華富邨華珍樓611-619室
22.2819429992779,114.128638843592,士美非路公共圖書館,香港堅尼地城士美菲路12K號士美非路市政大廈三樓
22.3468332637102,114.20062952048,慈樂社區居民聯會,九龍慈雲山慈樂邨樂滿樓地下
22.3436752876262,114.200543557082,流動圖書館六(鳳德邨服務站),九龍黃大仙鳳德邨銀鳳樓側
22.3688130015414,114.116074181348,陳桓鑌議員辦事處-社區圖書館,新界荃灣眾安街89號1字樓前座
22.3035273873496,114.190020575211,流動圖書館七(黃埔花園服務站),九龍紅磡黃埔花園第五期地下平台
22.454792879035,114.17607288154,流動圖書館五(富善邨服務站),新界大埔富善邨善美樓側
22.3218829172092,114.162790751857,大角咀公共圖書館,九龍大角咀福全街63號大角咀市政大厦三樓
22.2810212958611,113.935524245012,香港離島婦女會賽馬會婦女綜合服務中心,大嶼山東涌逸東村二號停車場頂樓
22.3132653236942,114.239329531585,中國基督教播道會興田邨道真堂愛禮信長者中心,九龍觀塘啟田邨彩田樓地下101室
22.2848890083016,114.038054966235,坪洲公共圖書館,新界坪洲寶坪街6號坪洲市政大廈地下
22.3087784971218,114.19217368941,流動圖書館八(海逸豪園服務站),九龍紅磡海逸豪園第九座入口側
22.3639388413298,114.173204352669,耆康會王華湘紀念長者鄰舍中心便利圖書站,新界沙田顯徑邨顯慶樓A翼地下
22.3645402760696,114.138428305514,流動圖書館一(石籬邨服務站),新界葵涌石籬(一)邨石安樓側
22.325135627317,114.227570705973,跳躍書坊,九龍順天邨天柱樓地下
22.316598134671,114.237962501505,寶達邨社區圖書館,九龍秀茂坪寶達邨達佳樓平台2號室
22.4642382400574,113.995767906998,鄺月心議員辦事處社區圖書館,新界元朗天水圍天恩邨恩頤樓第一翼地下
22.3156635344527,114.224277046741,瑞和街公共圖書館,九龍觀塘瑞和街9號瑞和街市政大樓五至六樓
22.3060961832954,114.236249841528,平田社區圖書館,藍田平田邨平仁樓地下4 號
22.4243941288086,114.237130535615,流動圖書館二(富寶花園服務站),新界馬鞍山富寶花園管理處側之停車場
22.3063613627186,114.250264065007,何民傑區議員辦事處,將軍澳健明邨健明商場廣場
22.4414277709612,114.173159595515,大埔寶馬山,大埔山賢路8號
22.2919496441027,113.941365739977,流動圖書館四(東涌文東路公園服務站),新界東涌文東路公園側
22.4498361500829,114.160553161553,基督教香港信義會太和青少年綜合服務中心,新界大埔太和村麗和樓地下
22.2821480349639,114.160815229145,大會堂公共圖書館,香港中環大會堂高座二至六樓及八至十一樓
22.2780760006994,114.175418880269,駱克道公共圖書館,香港灣仔軒尼詩道225號駱克道市政大廈三至五樓
22.4859705931166,114.143503398652,流動圖書館十(華心邨服務站),新界粉嶺華心邨華勉樓側
22.3128772869332,114.238601445299,陳振彬周耀明黎樹濠馮錦照區議員服務處圖書館,九龍藍田興田邨美田樓地下106室
22.3430860130068,114.19746420434,嗇色園可蔭護理安老院,九龍黃大仙鳳德道38號地下A
22.3454559830983,114.108266644905,流動圖書館一(長青邨服務站),新界青衣長青邨青槐樓側
22.4438778172645,114.007840418005,流動圖書館三(屏山服務站),新界元朗屏廈路坑尾村停車場
22.340449612211,114.192813959782,龍興公共圖書館,九龍黃大仙下邨(二區)龍興樓地下北翼
22.3384977395676,114.157490850168,保安道公共圖書館,九龍深水埗保安道325-329號保安道市政大廈二樓
22.4684225435739,113.998667638047,天水圍北公共圖書館,新界天水圍天澤邨天澤商場313號舖位
22.2526021281414,114.151233648484,流動圖書館九(田灣邨服務站),香港田灣邨田麗樓側
22.4867273784341,114.139551072323,欣盛苑便利圖書站,新界粉嶺華明路15號欣盛苑客戶服務處
22.4497880401286,114.003405165749,流動圖書館三(天耀邨服務站),新界天水圍天耀邨耀民樓側
22.3201516246029,114.267082094253,將軍澳街坊聯會有限公司,將軍澳康盛花園商場7G號鋪
22.3753759966554,114.19451231251,流動圖書館五(博康邨服務站),新界沙田博康邨社區會堂側
22.4216324037804,114.235231412218,流動圖書館五(錦英苑服務站),新界沙田錦英苑錦義閣側平台廣場
22.2534405018488,113.865654018724,大澳公共圖書館,新界大嶼山大澳龍田邨商業中心12號舖
22.2218358885473,113.915837373382,流動圖書館四(水口服務站),新界大嶼山嶼南道水口公共停車場
22.3156966392066,114.233662479674,秀茂坪公共圖書館,九龍觀塘秀茂坪邨秀明樓104-109號
22.3427320789507,114.208297814583,富山公共圖書館,九龍蒲崗村道富山邨富仁樓地庫一層1-4號單位
22.2495646728191,114.154357970296,香港仔公共圖書館,香港香港仔大道203號香港仔市政大廈三樓
22.3807639036303,114.126284140902,香港聖公會麥理浩夫人中心鄰舍層面社區發展部,新界荃灣老圍村公立學校
22.2459173782146,114.164660905575,徐遠華議員辦事處(南區),香港黃竹坑惠福道3號珍寶閣地下
22.442620488356,114.167889437374,流動圖書館二(運頭塘邨服務站),新界大埔運頭塘邨商場近運臨樓出口
22.369660063704,114.12660370772,流動圖書館十(葵涌邨服務站),新界葵涌葵涌邨旭葵樓側
22.3178465787672,114.18620169334,香港小童群益會樂民兒童及家庭綜合活動中心,九龍土瓜灣樂民新邨樂善樓地下
22.3071469722703,114.250380937159,靈實長者地區服務社區圖書館(健明邨),將軍澳健明邨明域樓地下B及C翼
22.319790713657,114.266518914898,港澳信義會小學圖書館,新界將軍澳集福路四號
22.2895530625312,114.193730037275,電氣道公共圖書館,香港電氣道229號電氣道市政大廈二樓
22.3209952231716,114.260065146936,馬可紀念之家圖書,新界將軍澳景林村景桃樓二樓
22.3061524768927,114.227359068832,流動圖書館八(麗港城服務站),九龍觀塘麗港城第一期住客俱樂部側
22.2768495479042,114.225593257812,耀東公共圖書館,香港筲箕灣耀東邨耀昌樓地下
22.269216677408,114.18613053306,香港青年發展網絡,香港跑馬地源遠街12號閣樓
22.4569992416244,114.00379161624,天水圍公共圖書館,新界天水圍天恩路18號嘉湖銀座第二期一樓101-102號
22.4624105458183,114.000715656298,香港天水圍婦女聯合會,新界天水圍天悅邨服務設施大樓1字樓103室
22.277416751504,114.179280708447,灣仔浸會愛群社會服務處-灣仔綜合青少年服務,香港愛群道36號灣仔綜合青少年服務中心3樓
22.241486222922,114.15740621471,流動圖書館六(利東邨服務站),香港鴨脷洲利東邨東平樓側
22.354020256334,114.130271310271,流動圖書館一(麗瑤邨服務站),新界葵涌麗瑤邨富瑤樓側
22.4628152409462,113.999189749735,立法會議員李卓人辦事處-天悅邨,新界天水圍天悅邨悅泰樓地下A室
22.4399447174404,114.065741506903,流動圖書館三(錦田服務站),新界錦田錦田鄉事委員會前
22.4131763812393,113.98388786394,流動圖書館三(富泰邨服務站),新界屯門富泰邨美泰樓附翼側
22.3108094714523,114.238095856329,明愛賽馬會德田青少年綜合服務,九龍藍田德田邨德敬樓一樓
22.2633257151918,114.239976777163,柴灣公共圖書館,香港柴灣柴灣道338號柴灣市政大廈四樓至五樓
22.3238722949362,114.248904640351,香港青年協會翠林青年空間,將軍澳翠林邨安林樓3字樓
22.3628612120057,114.114329148334,鄒秉恬民選議員辦事處,新界荃灣海濱廣場3樓311室
22.2447435657141,114.150783018134,流動圖書館六(鴨脷洲邨服務站),香港鴨脷洲鴨脷洲邨利添樓側
22.3291225800399,114.21040110223,自强協會有限公司,九龍灣啟業村啟裕樓地下58-61號
22.2068194491046,114.028346375456,長洲公共圖書館,新界長洲大興堤路2號長洲市政大樓二樓
22.4124640058554,113.97803228271,陳樹英區議員辦事處便利借書站,新界屯門兆康苑兆康商場212A室
22.3154366148269,114.228071895817,徐海山議員林建華議員聯合辦事處社區圖書館,九龍觀塘和樂邨平安樓地下6號舖
22.3385446201176,114.187167010134,樂富公共圖書館,九龍聯合道樂富廣場三樓112號
22.4763054488243,114.046093230453,流動圖書館三(錦繡花園服務站),新界元朗錦繡花園商場側停車場