latitude,longitude,name,address
22.2960558200802,114.169363182112,編號379郵箱,尖沙咀廣東道海洋中心對面
22.452934156357,114.167697385376,編號271郵箱,大埔安慈路翠屏花園
22.4094860359218,114.273618693407,編號228郵箱,企嶺下老圍
22.3179098595595,114.168692315586,編號72郵箱,朗豪坊 B2 層郵件派遞室
22.2819736164723,114.222183325588,編號15郵箱,筲箕灣道/太安街
22.325694328043,114.270734292936,編號241郵箱,清水灣道831號清雅苑門口
22.3122631619246,114.219015530965,編號205郵箱,觀塘偉業街142號∕巧明街
22.5005494470216,114.144367773047,編號655郵箱,粉嶺和滿街近帝庭軒外天橋下近小巴站
22.277747020716,114.1862048407,編號168郵箱,加路連山道 / 禮頓道
22.2865333836319,114.148209626411,編號97郵箱,皇后大道西16號
22.3533255201532,114.10900353912,編號229郵箱,青衣翠怡花園近巴士站
22.3032360887543,114.169943150712,編號196郵箱,柯士甸道37號∕廟街
22.2981472877954,114.168865230144,編號81郵箱,尖沙咀廣東道54-66號∕海防道
22.4947045189332,114.138205886566,編號FNG郵箱,粉嶺郵政局
22.2875509615533,114.147239042519,編號40郵箱,德輔道西/皇后街
22.3417816322719,114.192702475166,編號310郵箱,龍翔道 / 龍翔中心近港鐵黄大仙站B1出口
22.3024454497866,114.227237395895,編號234郵箱,茶果嶺道193號
22.2730980652546,114.185858141844,編號285郵箱,樂活道6號
22.3160303664571,114.229512443355,編號351郵箱,翠屏道翠屏邨翠桃樓巴士總站
22.2936798423961,114.168916915507,編號106郵箱,天星小輪碼頭【平郵】
22.2805199922022,114.148825068003,編號91郵箱,干德道31號
22.2737954812463,114.177378892656,編號213郵箱,司徒拔道友邦大廈
22.4610521935693,113.998089257143,編號408郵箱,"天水圍天頌苑頌富廣場一期地下,近便利店"
22.3374974258103,114.19372318989,編號526郵箱,黃大仙大成街 / 大同街
22.2914880218949,114.196431874702,編號169郵箱,北角道/渣華道
22.2485122391895,114.182720206347,編號234郵箱,壽臣山道東11號
22.3863775861844,114.203326079785,編號COS郵箱,沙田第一城郵政局
22.4503387513902,114.137359378401,編號514郵箱,大埔林錦公路近均益士多巴士站
22.438207021632,114.163767980361,編號420郵箱,大埔下碗瑤
22.4450315383196,114.040917444196,編號520郵箱,元朗博愛醫院正門
22.2362155175078,113.950286115898,編號387郵箱,長富街大嶼山
22.3888367315311,113.968024979572,編號464郵箱,屯門業旺路南豐工業城
22.3215682965214,114.172386252286,編號182郵箱,港鐵旺角東站門外 / 旺角政府合署門口
22.2813821421049,114.159879914133,編號239郵箱,遮打道/皇后像廣場
22.2906659757996,114.198471537332,編號74郵箱,英皇道/明園西街
22.3055144963687,114.169585894691,編號52郵箱,油麻地佐敦道37號∕上海街
22.3961526459763,114.284819189347,編號301郵箱,大網仔路黄竹灣村口
22.3189703843489,114.273420277836,編號319郵箱,碧沙路/清水灣道交界
22.3411150594626,114.200963457577,編號433郵箱,龍蟠街近鑽石山港鐵站A1入口
22.269737694848,114.127328330754,編號177郵箱,碧荔道/冠冕台
22.4005736303585,114.202833477713,編號540郵箱,火炭駿景園第三座旁
22.3029048421402,114.251377342191,編號632郵箱,維景灣對出翠嶺路將軍澳
22.2781608948218,114.176861733455,編號102郵箱,史釗域道/軒尼詩道
22.268943669774,114.240009375753,編號78郵箱,永泰道翠灣邨
22.245700179907,114.178966816901,編號62郵箱,黃竹坑道/壽山村道
22.2499060816897,114.139819739611,編號287郵箱,華貴邨巴士總站
22.3494979735072,114.195311902283,編號696郵箱,九龍慈雲山道近沙田坳邨小巴總站
22.2820394761118,114.158981301203,編號212郵箱,聖佐治大廈
22.3433191552106,114.109955844914,編號673郵箱,青衣藍澄灣近小巴站
22.3110827429285,114.18462411534,編號36郵箱,佛光街／信用街
22.2756412261858,114.170593629209,編號137郵箱,皇后大道東/船街
22.2973201077103,114.169382523832,編號407郵箱,海防道∕廣東道新港中心
22.270039519112,114.195029775811,編號289郵箱,"睦誠徑, 渣甸山"
22.4821303924979,114.112228310366,編號322郵箱,粉錦公路蓮塘尾塘公嶺村
22.510859364523,114.109247672687,編號527郵箱,上水河上鄉
22.275955473461,114.195221689735,編號107郵箱,大坑道真光中學
22.3336569216425,114.209977022763,編號10郵箱,坪石邨玉石樓
22.2428749350023,114.16455446067,編號377郵箱,深灣道11號 / 雅濤閣
22.2802701628398,114.186519394754,編號CWB郵箱,銅鑼灣郵政局
22.2859232018144,113.934990868496,編號634郵箱,東涌馬灣涌53號
22.3747791188066,114.115134596292,編號467郵箱,西樓角道38號荃灣政府合署
22.3611305819548,114.123359154947,編號KSG郵箱,葵盛郵政局
22.3191351474803,114.165904695583,編號118郵箱,大角咀塘尾道29號周勝記商業大厦
22.498896111525,114.078135052977,編號SNT郵箱,新田郵政局
22.4279819514632,113.997339009814,編號600郵箱,丹桂村路玉桂園傍近專線小巴站
22.3939895086028,113.972971885487,編號667郵箱,港鐵屯門站近客務中心
22.321858202764,114.180278304636,編號195郵箱,登巴道 / 嘉齡道
22.5099606092761,114.160089324159,編號165郵箱,沙頭角公路軍地
22.323892715407,114.170695344782,編號215郵箱,洗衣街201-3號 / 太子道
22.3447206077213,114.150409180502,編號92郵箱,長沙灣大埔道∕郝德傑道
22.3440564777813,114.199848552056,編號189郵箱,慈雲山鳳德邨OK便利店對面
22.3178009626488,114.192258145825,編號TKW郵箱,土瓜灣郵政局
22.2812478404354,114.162527969968,編號322郵箱,夏愨道 10號
22.3648179496206,114.055246436091,編號471郵箱,青龍頭浪翠園第三期更亭側對面巴士站
22.2373361390174,114.192354084104,編號246郵箱,麗景道/淺水灣道
22.2815259016342,114.192033896619,編號87郵箱,銅鑼灣道164號A
22.503868089886,114.12666713853,編號41郵箱,上水新豐路石湖墟郵局門外
22.3370051654535,114.146812180557,編號558郵箱,"荔枝角港鐵站近大堂,近C出口"
22.3399052296617,114.154561937355,編號85郵箱,長沙灣青山道408號昌華街
22.3045172699124,114.188345595507,編號HHB郵箱,紅磡灣郵政局
22.5004399114621,114.125892834906,編號368郵箱,上水彩園邨第1期巴士總站
22.4243795122135,114.263338805165,編號225郵箱,西貢西沙路大洞
22.4346527918365,114.01178184875,編號685郵箱,元朗沙井路金碧花園門口對面
22.2757000789707,114.160026143021,編號205郵箱,麥當勞道76號(對面)
22.3191279693105,114.267957882593,編號31郵箱,將軍澳寶寧路富寧花園巴士站
22.3070601132435,114.261807687696,編號637郵箱,將軍澳寶盈花園近大閘
22.375792114647,114.107856602361,編號690郵箱,荃灣青山公路荃景圍天橋巴士站
22.3676557301656,114.110311239623,編號661郵箱,港鐵荃灣西站近客務中心
22.419529011688,114.200379637866,編號478郵箱,大埔公路赤泥坪巴士站
22.3204134179346,114.214783236043,編號268郵箱,"牛頭角下邨第一座,觀塘道"
22.4290521734066,114.196463758942,編號280郵箱,大埔鹿茵山莊路口
22.4625868969432,113.996050841325,編號381郵箱,元朗天水圍天恩邨天恩商場外
22.2792579757878,114.158407224963,編號45郵箱,"下亞厘畢道, 中區政府合署"
22.2851331927558,114.157425421274,編號365郵箱,香港站 / 2層地庫
22.4069813023752,113.975588774864,編號530郵箱,青麟路屯門醫院入口處
22.3529492194633,114.12432339798,編號599郵箱,貨櫃碼頭永得利廣場外
22.3756484303791,114.10554475571,編號574郵箱,"荃灣翠豐台二座對出,安育路1-2號"
22.2276041576436,113.932374163082,編號127郵箱,"大嶼山, 塘福"
22.5087929928539,114.123038181254,編號223郵箱,上水村/門口村
22.3704213422548,114.080682373677,編號94郵箱,青山公路十一咪半汀九巴士站
22.2826122562746,114.143347067061,編號30郵箱,羅便臣道/屋蘭士街
22.3363999580823,114.228876508155,編號199郵箱,飛鵝山道飛霞路
22.4032970059362,113.977883137073,編號153郵箱,屯門井財街9號錦發大厦對出巴士站
22.436646071689,114.182848568267,編號463郵箱,大埔滘大埔公路翡翠花園正門出口
22.4987369565748,114.143921148281,編號164郵箱,粉嶺聯和墟聯昌街∕聯和道遊樂場
22.2829464238544,114.191999117807,編號346郵箱,港鐵天后站近A出口
22.4219818277194,113.982262363728,編號650郵箱,青磚圍/五柳路
22.4264624179243,114.241011928385,編號LEN郵箱,利安郵政局
22.2835202395072,114.156749310591,編號190郵箱,德輔道中中南行
22.2500147557038,114.157096541595,編號202郵箱,漁暉苑/漁光道
22.3210931858265,114.169572473018,編號19郵箱,旺角道及西洋菜南街交界.
22.3776217380364,114.19584966333,編號445郵箱,沙田水泉坳街博康邨巴士總站
22.3248713227923,114.256116965229,編號PLM郵箱,寶林郵政局
22.4001563803581,113.968692738476,編號498郵箱,屯門建發街開泰工廠大廈
22.289199597903,113.939343218133,編號TCG郵箱,東涌郵政局
22.4088684705564,114.221890298258,編號KTI郵箱,錦泰郵政局
22.3209806779865,114.161861970452,編號283郵箱,大角咀道91號∕利得街
22.2149562870999,114.218096027782,編號60郵箱,赤柱監獄
22.3399013383217,114.177882964874,編號30郵箱,九龍塘歌和老街1A-B∕窩打老道163號
22.3182530692905,114.169692002309,編號452郵箱,旺角彌敦道636號銀行中心／奶路臣街
22.2971066529344,114.24214632951,編號671郵箱,油塘高超道高怡邨高遠樓
22.3172594888789,114.187812820403,編號7郵箱,馬頭圍道165號市政總署門口
22.3655690254253,114.13915426886,編號SLI郵箱,石籬郵政局
22.3028927520618,113.935137321834,編號572郵箱,國泰航膳供應中心
22.4041618129323,113.980583729483,編號249郵箱,屯門景峰徑偉峰花園五座對面行人路
22.5015855573387,114.127802125953,編號387郵箱,港鐵上水站/行人天橋
22.4434777960452,114.033035594475,編號244郵箱,元朗鳳攸北街∕鳳琴街
22.3290154330809,114.164749807559,編號113郵箱,長沙灣道110號∕石硤尾街
22.2809072733027,114.221553236974,編號382郵箱,東欣苑耀興道68號
22.3888429901624,113.967976416562,編號687郵箱,屯門業旺路南豐工業城
22.343334440643,114.196769174971,編號88郵箱,鳳德道33號消防局對面
22.3550449747435,114.250765266318,編號65郵箱,西貢公路蠔涌
22.3082471504137,114.184250307831,編號5郵箱,蕪湖街165號∕獲嘉道
22.3235988144502,114.163809737398,編號76郵箱,大角咀合桃街8號 / 通洲街
22.3188212219698,114.17376943412,編號157郵箱,何文田自由道∕太平道6號
22.2688723689807,114.163991391526,編號179郵箱,白加道/山頂道
22.4873817859086,114.142269892314,編號439郵箱,粉嶺一嗚路碧湖花園
22.2707953547385,114.130988753441,編號359郵箱,瑪麗醫院K座
22.4419480578511,114.160641512751,編號504郵箱,大埔馬窩路新峰花園御峰苑門口
22.2778886309173,114.226724029151,編號180郵箱,筲箕灣道374-380號
22.3375575163774,114.15634746878,編號124郵箱,元州街發祥街元州邨元和樓
22.3801938027077,114.173058278547,編號523郵箱,沙田美松苑近小巴站
22.462086643954,114.151890027821,編號364郵箱,大埔康樂園管理處
22.3098821301994,114.237826614734,編號89郵箱,藍田慶田街德田邨德田廣場門外
22.4359552513479,114.028829400129,編號148郵箱,大棠路禮修新村
22.2786077877102,114.170486763077,編號360郵箱,分域街/謝斐道
22.4690392622916,114.152474679429,編號152郵箱,大埔公路泰亨村村口
22.2806936560583,114.150471682495,編號106郵箱,羅便臣道60號
22.3960966418398,113.974669251589,編號305郵箱,屯門鄉事會路36-38號∕仁政街
22.2755910617388,114.162687673316,編號332郵箱,波老道6號
22.2650861621771,114.241326174904,編號CHW郵箱,柴灣郵政局
22.2786645721974,114.1510979162,編號178郵箱,干德道9號
22.2866948841212,114.218619706336,編號TKS郵箱,太古城郵政局
22.3088966199075,114.176299807229,編號4郵箱,伊利沙伯醫院衛理道
22.4341737328829,114.063682865165,編號662郵箱,港鐵錦上路站近D出口
22.2676021113433,114.169796448686,編號99郵箱,甘道/灣仔峽道
22.2489456046493,114.157770918236,編號23郵箱,石排灣邨碧綠樓對面
22.3102909333463,114.22215946776,編號KTG郵箱,觀塘鴻圖道52號百本中心地下A及B室
22.318894877912,114.220356942409,編號91郵箱,鱷魚山康利道22-24號康利苑
22.2819569887434,114.232125403425,編號194郵箱,亞公岩村道6號
22.401097257481,113.972153517808,編號82郵箱,屯門石排頭路 / 河旺街翠林花園
22.3782818190093,114.133948204816,編號691郵箱,荃灣梨木樹邨梨樹路近第二座
22.2546772488261,113.906277882709,編號80郵箱,"大嶼山, 昂坪"
22.2801286447271,114.228285107063,編號366郵箱,"愛賢街,愛秩序灣"
22.3624440627134,114.137494879588,編號406郵箱,荃灣石籬上邨第一期石俊樓近巴士總站
22.2867087818103,114.136425406456,編號153郵箱,德輔道西/屈地街
22.4427391005158,114.044650048908,編號154郵箱,元朗青山公路凹頭友善街
22.3907075341327,113.920119528504,編號264郵箱,屯門龍鼓灘路北朗龍濤灣畔對出巴士站
22.3843186040618,113.965798326953,編號545郵箱,屯門龍門居龍門路
22.3217382696914,113.942920208236,編號686郵箱,亞洲國際博覽館 機場
22.2855211803745,114.154840321249,編號364郵箱,機利文街/德輔道中
22.3002641881999,114.18164904085,編號IMC郵箱,國際郵件中心郵政局
22.2827831988198,114.155640312751,編號238郵箱,皇后大道中 70號
22.2781888193629,114.172044133124,編號310郵箱,駱克道 93-107號
22.481976295846,114.058643559528,編號169郵箱,新田青山公路牛潭尾村口
22.3784384024687,114.108668029608,編號349郵箱,荃灣荃景圍荃灣中心近巴士站
22.37427628992,114.115586322006,編號TSW郵箱,荃灣郵政局
22.3363690821041,114.208586630292,編號597郵箱,"威豪花園外,近小公園,安定道,鑽石山"
22.371882549815,114.259806993243,編號394郵箱,西貢公路/大涌口路交界涼旁
22.5031448960006,114.133362638443,編號373郵箱,上水天平邨商場
22.257290360943,114.19188381208,編號183郵箱,布力徑/深水灣道
22.2887738302045,113.94277908016,編號531郵箱,東涌富東邨商業中心地下
22.3204494668166,114.177069452714,編號20郵箱,窩打老道90號∕亞皆老街
22.3117526177006,114.229372050497,編號139郵箱,"翠屏道/佳廉道,觀塘泳池外"
22.3035159311687,114.16777409834,編號211郵箱,廣東道393號廣東道政府合署外
22.3102461201283,114.220926875855,編號416郵箱,174號偉業街 / 駿業街
22.4425159827212,114.1771833177,編號602郵箱,大埔黃宜坳雍怡路
22.4532960498375,114.164310621054,編號537郵箱,大埔美新里 / 翠樂街
22.3406513262248,114.164675999443,編號419郵箱,石硤尾澤安邨巴士站
22.2994243582597,114.172633449417,編號GVR郵箱,加連威老道郵政局
22.2710244140112,114.123992115491,編號259郵箱,大口環道
22.4399823970357,114.061523518453,編號34郵箱,錦田公路∕錦上路吉慶圍
22.2959204941966,114.173303153922,編號TST郵箱,尖沙咀郵政局
22.2849566685426,114.199522527434,編號242郵箱,賽西湖商場
22.2940403279689,114.173754447154,編號341郵箱,尖沙咀新世界中心
22.3032208646971,114.174402530314,編號3郵箱,柯士甸路 25號 / 柯士甸道
22.281256870217,114.162518265716,編號321郵箱,夏愨道 10號
22.3710008911702,114.125941036097,編號561郵箱,大窩口港鐵站大堂近B出口
22.3838254874573,113.97351397221,編號242郵箱,屯門豐景園海珠路第4座門口
22.2462573539368,114.173560501705,編號105郵箱,黃竹坑警察訓練學校
22.3263869889491,114.15887860116,編號375郵箱,深水埗昌新里南昌邨昌賢樓
22.3879771203809,114.195149956686,編號WOC郵箱,禾輋郵政局
22.5195985120109,114.207382236655,編號275郵箱,南涌村裕興士多門口
22.3200822826191,114.163569354441,編號TKT郵箱,大角咀郵政局
22.2871987868563,114.214978041472,編號250郵箱,太裕路/太古灣道
22.3652988717128,114.17501118966,編號220郵箱,顯孝街顯徑邨顯沛樓外近巴士站
22.2867613019583,114.150247359781,編號SWN郵箱,上環郵政局
22.3162079217969,114.214561778537,編號499郵箱,觀塘偉業街∕順業街
22.2868612631858,114.191341627959,編號70郵箱,屈臣道 / 電氣道
22.5035598608372,114.102535554448,編號494郵箱,上水古洞村村公所
22.4832098146004,114.138613318777,編號689郵箱,粉嶺雍盛苑
22.5008405446461,114.141589163422,編號538郵箱,粉嶺 禾睦路 榮福中心
22.2478184518936,114.166335139031,編號43郵箱,香葉道貴寶工業大廈對面
22.3493808769683,114.13551907734,編號369郵箱,葵涌華景山路華員邨入口
22.2833498984127,114.138534937124,編號32郵箱,香港大學紐魯詩樓
22.3662492047596,114.118454049932,編號YUR郵箱,楊屋道郵政局
22.3401839120243,114.182128986784,編號277郵箱,九龍塘廣播道1B號 (百樂園對面)
22.2810312448814,114.223857814097,編號HMS郵箱,興民街郵政局
22.276026027514,114.179600882308,編號MHL郵箱,摩理臣山郵政局
22.3282070707292,114.217454652492,編號694郵箱,九龍九龍灣彩榮路彩福邨近彩善樓
22.3629897715952,114.176984085818,編號511郵箱,顯康街∕顯泰街瑞峰花園
22.2805153609506,114.224661073234,編號108郵箱,海富街/筲箕灣道
22.3261054672654,114.214486787997,編號61郵箱,牛頭角道15號近淘大花園 (嘉和園)
22.3130693238229,114.239422617401,編號442郵箱,藍田 連德道 興田邨 彩田樓
22.2853803243926,114.155002393699,編號191郵箱,中保集團大廈
22.3810457470911,113.964257400757,編號141郵箱,屯門屯青里新屯門中心輕鐵車廠
22.4509111007064,114.164205912292,編號TPO郵箱,大埔郵政局
22.3279073185982,114.189714197592,編號181郵箱,九龍城太子道西414號∕南角道1C
22.527298793134,114.104283232126,編號136郵箱,上水料壆村
22.3302069756243,114.180502734934,編號216郵箱,九龍塘蘭開夏道18-24號∕牛津道
22.2643203816263,114.236553330306,編號319郵箱,祥利街/吉勝街
22.2834663627508,114.159408073512,編號GPO郵箱,郵政總局
22.397197487162,114.193160335362,編號465郵箱,火炭郵局外面
22.2824270417072,114.153108745612,編號120郵箱,荷里活道48號
22.3110079753843,114.258913990688,編號SHT郵箱,尚德郵政局
22.3990258212942,114.186084759218,編號266郵箱,沙田火炭桂地新村路平房區
22.3326028131649,114.179194309926,編號59郵箱,九龍塘對衡道1號 / 窩打老道150號
22.3101006941192,114.224246051001,編號480郵箱,觀塘開源道 / 興業街
22.4438695510388,114.028855005479,編號622郵箱,元朗裕景坊熟食檔外
22.321697062489,114.220386929791,編號LWH郵箱,樂華郵政局
22.2458645429022,114.178574903256,編號136郵箱,黃竹坑道香港鄉村俱樂部對面
22.2936843558582,114.168879068904,編號107郵箱,天星小輪碼頭【空郵】
22.2574845643348,114.139591698634,編號297郵箱,置富巴士總站對面
22.2777308057002,114.185481959346,編號263郵箱,新寧道 1-5 號
22.2841828113391,114.224285823634,編號300郵箱,(太安街)東區法院地下
22.3778829901737,113.98347047787,編號96郵箱,青山公路∕青榕街海景花園
22.2879361359701,114.144949836438,編號142郵箱,德輔道西/威利蔴街
22.2923268221485,114.237291090416,編號317郵箱,油塘祟信街四山街∕近巴士總站
22.2714953722414,114.178012467385,編號214郵箱,肇輝台
22.2182355864218,114.213268828804,編號276郵箱,赤柱郵政局外
22.286496963553,114.151879571259,編號166郵箱,德輔道中/禧利街
22.2687852773475,114.176144718298,編號293郵箱,司徒拔道47號A
22.3682211615824,114.177933665835,編號95郵箱,大圍隆亨邨田心街
22.4151114542932,113.971312279252,編號651郵箱,屯門小坑村塘亨路38號寶華花園三期對面
22.3378295953447,114.201899641157,編號631郵箱,采頣花園彩虹邨\新蒲崗
22.3026712057666,114.240146814475,編號29郵箱,藍田廣田邨商場
22.348205912072,114.200610337604,編號TWS郵箱,慈雲山郵政局
22.3177031380893,114.170462674881,編號11郵箱,旺角山東街51號 / 西洋菜街26號
22.3733596444598,114.113126284711,編號206郵箱,荃灣海壩街福來邨近小巴站
22.3352224910968,114.182804410979,編號298郵箱,浸會大學宿舍近偉倫樓 / 浸會大學道5號
22.2792335729781,114.151547069984,編號22郵箱,羅便臣道29號
22.3189305164122,114.175602883127,編號411郵箱,油麻地窩打老道71號A∕梭椏道
22.2805366087443,114.157500770764,編號114郵箱,皇后大道中12號
22.2537899014416,113.862326658774,編號151郵箱,"大澳, 永安街20號"
22.2861063707352,114.132695490048,編號94郵箱,卑路乍街/寶翠園
22.3320065075795,114.166895732468,編號SKM郵箱,石硤尾郵政局
22.453251215082,114.006808960391,編號533郵箱,天水圍天慈邨商場地下
22.4484042598343,114.164358663649,編號39郵箱,近仁興街 ∕人和里交界
22.2375296274001,114.189701067711,編號134郵箱,香島道/淺水灣道
22.2642507433641,114.23683078247,編號352郵箱,港鐵柴灣站近B出口
22.2388593866706,114.152141193164,編號335郵箱,利南道/利榮街
22.325140711039,114.259184326995,編號620郵箱,寶琳北路將軍澳賽馬會診所
22.3152312046851,114.220210221264,編號473郵箱,牛頭角道296-299號玉蓮臺 花園大廈
22.27150046567,114.196834659749,編號252郵箱,畢拉山道111號
22.2484088946564,114.155454375473,編號ABD郵箱,香港仔郵政局
22.3396052048499,114.13518414176,編號382郵箱,荔景山道清麗苑出口
22.4204145441875,114.196280912279,編號491郵箱,大埔公路大埔尾村巴士站
22.3536184527072,114.130466581315,編號315郵箱,葵涌麗瑤邨商場 近巴士站
22.3470956188646,114.203421552735,編號300郵箱,毓華街/慈雲山巴士總站／慈雲山道
22.2835214239993,114.142310517955,編號144郵箱,列堤頓道28號
22.2937136598261,114.02296500271,編號370郵箱,"愉景灣, 霞暉閣"
22.4478502636303,114.175135433428,編號398郵箱,大埔廣福邨廣宏街
22.2300043090759,114.198600919321,編號159郵箱,南灣道55號(對面)
22.2859653108259,114.153572953993,編號373郵箱,德輔道中 188 號
22.2853637098623,114.211170814824,編號156郵箱,英皇道 994號
22.3762996044144,114.116857434315,編號405郵箱,荃灣荃錦公路木棉下村近巴士站
22.2868720995951,114.191345510566,編號314郵箱,電氣道/屈臣道
22.2919937052071,113.944367118397,編號670郵箱,東涌藍天海岸 / 東薈城交界行人天橋上
22.3041242244592,114.19104255859,編號461郵箱,德安街黃埔花園商場
22.4397865487833,114.017123494893,編號385郵箱,御豪花園/公園南路御景園
22.2962323120172,114.291356730345,編號371郵箱,清水灣道大澳門路
22.3375911910797,114.142006007425,編號14郵箱,荔枝角醫院
22.2783947647643,114.174056556678,編號311郵箱,駱克道175號
22.3800879088883,114.196406391294,編號353郵箱,沙田怡成坊近巴士總站
22.4460836197475,114.167057631711,編號42郵箱,大埔運頭街大埔綜合大樓外
22.2872648109564,114.210437675877,編號14郵箱,英皇道 / 糖廠街
22.3241928917393,114.214041726259,編號562郵箱,九龍灣港鐵站近大堂入閘處
22.4862637681979,114.053606230479,編號487郵箱,新田加洲花園商場對開
22.449191045704,114.001655275242,編號609郵箱,天水圍天盛苑天靖街
22.3488963176418,114.105462261045,編號TYI郵箱,青衣郵政局
22.381504002809,114.270761989697,編號66郵箱,西貢墟萬宜新村
22.2796021082287,114.171838376798,編號GLR郵箱,告士打道郵政局
22.4200637729873,114.230111062221,編號457郵箱,馬鞍山耀安邨近商場
22.3210579667763,114.16957829849,編號482郵箱,旺角道及西洋菜南街交界
22.3313385454407,114.175738669706,編號YYT郵箱,又一村郵政局
22.2657347590791,114.128494010017,編號260郵箱,沙宣道 33號
22.2749333719375,114.128482117615,編號333郵箱,摩星嶺道2號A
22.3772941810698,114.193575541854,編號SHK郵箱,沙角郵政局
22.3157398662778,114.169973595851,編號178郵箱,彌敦道581-591號∕長沙街
22.2820021520103,114.156445811392,編號115郵箱,皇后大道中 31號
22.3196691512862,114.171984484533,編號214郵箱,旺角亞皆老街80號∕洗衣街
22.2685674930361,114.124978807526,編號228郵箱,"域多利道, 美景台"
22.3374546071856,114.145332704502,編號68郵箱,長沙灣青山道702號
22.3381075075134,114.187669814146,編號515郵箱,樂富港鐵站大堂詢問處近售票機
22.3680053376688,113.999970508138,編號143郵箱,大欖小秀村 巴士站
22.5244336158467,114.160344193541,編號188郵箱,打鼓嶺鄉事會中心
22.4166870972893,114.227866137824,編號HGN郵箱,恆安郵政局
22.3732537460249,113.965947062678,編號422郵箱,屯門兆禧苑 / 湖翠路近街市
22.412963005565,114.210280379288,編號522郵箱,馬料水港鐵大學站外面近巴士總站
22.3141303875628,114.187797046641,編號119郵箱,土瓜灣道1號∕啟明街
22.2619169403849,114.235125146702,編號129郵箱,環翠道近興華(一)邨卓華樓
22.3910756033098,114.290235906244,編號370郵箱,大網仔路大網仔巴士總站
22.2443920967274,114.155809063738,編號64郵箱,洪聖街/鴨脷洲市政大廈
22.3708201783197,114.138704275602,編號410郵箱,荃灣石蔭路街市外面近巴士總站
22.3156967509167,114.263933611127,編號658郵箱,港鐵坑口站近客務中心
22.2551317176607,113.860400839333,編號149郵箱,大澳郵政局
22.3379351605224,114.137634747488,編號MSC郵箱,美孚新邨郵政局
22.4756647641953,114.057170990067,編號299郵箱,新田上竹園村巴士站
22.3398341450671,114.156517015409,編號84郵箱,蘇屋邨 杜鵑樓 保安道近長發街
22.2949333642086,114.23887497895,編號506郵箱,嘉榮街油塘中心
22.4299312065303,114.251114728057,編號596郵箱,西貢西沙路帝琴灣巴士站
22.2564000606254,114.1326921944,編號388郵箱,數碼港道貝沙灣一期六座對出
22.3071354981575,114.169755650715,編號125郵箱,油麻地上海街168-170號∕西貢街
22.3435367473969,114.186718885201,編號207郵箱,竹園馬坑涌天馬苑駿飛閣
22.3852564810372,114.192726822998,編號37郵箱,沙田瀝源邨禾輋街壽全樓
22.3312777878142,114.262861946868,編號336郵箱,清水灣道邵氏片場 / 銀影路交界
22.4675124319388,113.983885578073,編號173郵箱,元朗流浮山深灣路與流浮山道交界
22.2777481802899,114.159566942152,編號26郵箱,山頂纜車站下
22.3078522683097,114.223575635228,編號334郵箱,"宏利金融中心郵件派遞室,偉業街223-231號"
22.3236253184376,114.168625981621,編號18郵箱,旺角彌敦道760號聯合廣場門口
22.2971195957789,114.011533370351,編號371郵箱,"愉景灣, 觀港樓"
22.2738374166517,114.163961830119,編號277郵箱,波老道 12 號
22.2859508364549,114.192822312178,編號111郵箱,英皇道 / 水星街
22.3563740861135,114.125828877619,編號93郵箱,興芳路∕葵福路
22.4679985229228,113.999037397909,編號639郵箱,天水圍天澤商場門外
22.3166514415852,114.221229766709,編號69郵箱,牛頭角功樂道近凱德大廈
22.2655218972486,114.154677538426,編號140郵箱,山頂道/歌賦山道
22.3759331442128,114.171178559886,編號357郵箱,沙田美田邨巴士總站對出
22.3094392541244,114.170963842073,編號KCL郵箱,九龍中央郵政局
22.4553363358954,114.169267237315,編號48郵箱,大埔汀角路大元邨泰民樓
22.3681424792628,114.170591459266,編號676郵箱,大埔公路沙田嶺沙田花園近巴士站
22.3137020462472,114.266958569393,編號636郵箱,將軍澳銀澳路新寶城巴士站
22.417697892538,114.223957112037,編號321郵箱,馬鞍山恒明街聽濤雅軒
22.3154901885017,113.935018583961,編號APT郵箱,機場郵政局
22.3132966509198,114.227152970287,編號347郵箱,觀塘月華街∕天香街近地利亞中學
22.3694761816904,114.116983667385,編號161郵箱,荃灣沙咀道286號/眾安街
22.3767754545958,114.007274874442,編號624郵箱,掃管笏村路天后古廟前
22.4470547458466,114.00444804784,編號233郵箱,天水圍屏廈路坑尾村村口
22.3284728645951,114.186368385762,編號180郵箱,九龍城嘉林邊道7號 / 秀竹園道
22.4183576262176,114.024956132926,編號292郵箱,元朗大棠村近牌樓
22.2598697727842,114.136685361442,編號34郵箱,薄扶林村
22.2622658707324,114.130867345552,編號CBP郵箱,數碼港郵政局
22.341952968269,114.138080170623,編號78郵箱,荔景山路 華茘邨 喜麗樓
22.3651916455485,114.126257723463,編號489郵箱,葵盛東邨盛安樓
22.2906615338094,114.208936311531,編號TTM郵箱,七姊妹郵政局
22.4262358376405,113.945760540825,編號392郵箱,下白泥村 / 村公所旁
22.3074401308216,114.22158594432,編號282郵箱,觀塘渡輪碼頭
22.2775079402658,114.173257040721,編號309郵箱,軒尼詩道 / 灣仔港鐵站出口
22.4262213285279,114.233717073485,編號500郵箱,鞍駿街鞍超街馬鞍山中心商場門口
22.236797210059,114.227072258704,編號286郵箱,紅山半島 第四期
22.2725200798623,114.121847250896,編號122郵箱,摩星嶺道52-54號
22.4692884748548,114.194480479221,編號528郵箱,大埔香港教育學院賽馬會小學對面
22.2989794073887,114.238013060194,編號YTG郵箱,油塘郵政局
22.2980559102572,114.237118874512,編號646郵箱,港鐵油塘站大堂近客務中心
22.3067209719909,114.184374452372,編號111郵箱,機利士路28號∕必嘉街76號
22.3264574881146,114.152429622476,編號660郵箱,港鐵南昌站B出口
22.3365117549974,114.140715224358,編號265郵箱,美孚新邨百老匯街
22.4930241945737,114.135504740126,編號508郵箱,粉嶺嘉盛苑嘉福邨巴士總站
22.3383591274381,114.214194976274,編號590郵箱,牛池灣豐盛街55號 / 紀律部隊宿舍
22.340701419241,114.152431998111,編號179郵箱,明愛醫院的士站
22.3191028006447,114.23416953843,編號295郵箱,秀茂坪道秀茂坪邨秀賢樓/秀程樓
22.2291863064709,114.116425517566,編號294郵箱,南丫島 / 大坪村
22.2980867842709,114.168898228859,編號595郵箱,廣東道海防道54-66號
22.4760001010747,114.153755113723,編號232郵箱,大埔公路南華莆村村口
22.3730835400762,114.113712875168,編號469郵箱,荃灣海壩街福來邨近小巴站
22.3272033687752,114.181799445872,編號131郵箱,九龍塘界限街∕喇沙利道
22.3761067269855,114.192978241204,編號356郵箱,沙田乙明邨明恩樓對出
22.4865784512217,114.148836262618,編號248郵箱,大埔公路九龍坑老圍村口
22.4052738736254,114.223511029986,編號444郵箱,馬鞍山富安花園近巴士總站
22.2781173526993,114.184786269601,編號362郵箱,希慎道8號
22.3810265635048,113.978300309864,編號337郵箱,青山公路/三聖邨商場地下
22.3498042286588,114.059531010447,編號521郵箱,馬灣珀林路田寮村外
22.3869889310004,114.208470898343,編號633郵箱,沙田碩門邨商場門口對出
22.2844468994754,114.038513409353,編號PCH郵箱,坪洲郵政局
22.3177918181789,114.160248226417,編號580郵箱,港鐵奧運站大堂近車站控制室
22.2823463291716,114.157341386149,編號073B郵箱,德成大廈
22.3389761430778,114.149684155317,編號49郵箱,長沙灣青山道580號／大南西街
22.2780845436182,114.164163266477,編號264郵箱,金鐘政府合署/法院道
22.4588021818872,114.185170590988,編號40郵箱,大埔工業邨大順街
22.2485434428097,114.163940858756,編號375郵箱,黃竹坑道27號
22.3733152823301,114.17855512684,編號134郵箱,港鐵大圍站外圍
22.3163161096458,113.937812401058,編號588郵箱,香港國際機場二號客運大樓第五層櫃位近旅客服務中心
22.3238038737343,114.208875944967,編號443郵箱,九龍灣宏照道17號
22.3209522386503,114.185510828072,編號87郵箱,馬頭圍農圃道2號∕天光道
22.3485970669216,114.126130714078,編號560郵箱,荔景港鐵站近大堂近B出口
22.2768288724252,114.17779128328,編號100郵箱,活道/永祥街38號
22.2822687367,114.184791356241,編號291郵箱,百德新街/告士打道
22.3129295820332,114.170953990754,編號553郵箱,油麻地港鐵站近大堂近D出口
22.3151608818938,114.277056310867,編號493郵箱,清水灣道孟公屋巴士站
22.3413506303822,114.201801254264,編號621郵箱,鑽石山星河明居D座側
22.287672432277,114.149882325537,編號167郵箱,干諾道西9號
22.2965691577755,113.920746981964,編號576郵箱,赤鱲角駿坪路10號貨運站
22.4426601177934,114.026620010992,編號270郵箱,元朗西裕街金輝徑
22.3533318290515,114.135847024493,編號434郵箱,葵涌華景山路華景山莊入閘後左方
22.28973360502,114.194389925476,編號KNG郵箱,英皇道郵政局
22.4097376735117,113.982455208207,編號257郵箱,青山公路虎地新村嶺南大學外
22.3757763991441,114.271530079941,編號401郵箱,西貢明順村 / 對面海
22.4366569544285,114.100326300331,編號100郵箱,錦田公路∕羅屋村
22.3681881109188,114.092024414227,編號492郵箱,青山公路油柑頭恒麗苑
22.2750098458588,114.167673083332,編號240郵箱,堅尼地道/萬茂臺
22.2771765493557,114.17547516698,編號5郵箱,莊士頓道201號
22.5034084728036,114.149233287911,編號606郵箱,粉嶺沙頭角公路龍躍頭
22.266569483207,114.246696116785,編號305郵箱,安業街1號
22.2903659664901,114.238111201896,編號235郵箱,鯉魚門海傍道15號
22.3703837080016,114.186207147309,編號343郵箱,沙田頭路新田圍邨
22.2847825808074,114.220588963802,編號146郵箱,太古城道(翠湖台)太湖閣
22.5072124084265,114.241224069982,編號589郵箱,烏蛟騰
22.5366327167492,114.210723228961,編號104郵箱,沙頭角官中/沙頭角差館
22.2809231864022,114.219468000853,編號327郵箱,"興東邨, 興康樓"
22.3450792724688,114.107945502944,編號361郵箱,青衣長青邨近青槐樓
22.3245105587181,114.160053306172,編號679郵箱,大角咀福利街 / 港灣豪庭
22.2852293468988,114.14813226298,編號41郵箱,荷里活道/磅巷
22.4480517374112,113.993020193287,編號9郵箱,元朗屏廈路廈村
22.270516684383,114.191612584226,編號PKR郵箱,白建時道郵政局
22.275599898166,114.153240886637,編號196郵箱,舊山頂道/梅道
22.3672534612858,114.132938905205,編號71郵箱,葵涌禾葵里∕禾塘咀街
22.4508544664141,114.003343606098,編號TNY郵箱,天耀郵政局
22.3503380161575,114.200687393397,編號202郵箱,慈雲山道慈正邨正暉樓
22.2841721877176,114.140724800765,編號31郵箱,般咸道/漢寧頓道
22.2816499721651,114.156565213772,編號330郵箱,皇后大道中30號 (娛樂行)
22.374543918559,113.962977822648,編號BUT郵箱,蝴蝶郵政局
22.5217789220052,114.095641113577,編號466郵箱,馬草壟村
22.3271456990758,114.160199559315,編號114郵箱,深水埗北河街∕海壇街
22.2497659219541,114.147804802909,編號56郵箱,石排灣道49號
22.4404980992184,114.033426268314,編號543郵箱,元朗鳳翔街100號朗晴居
22.4027194752552,113.970296208108,編號THG郵箱,大興郵政局
22.3074998926326,114.260087232611,編號647郵箱,港鐵將軍澳站大堂近客户服務中心
22.3964973741794,113.970208287382,編號363郵箱,屯門建榮街∕建安街巴士廠
22.338750696089,114.245615684994,編號304郵箱,清水灣道壁屋監入口對面
22.2921526658996,114.208034172219,編號368郵箱,渣華道333號
22.298057109992,114.241053075323,編號483郵箱,藍田高超道高俊苑巴士站
22.3229827316786,114.227582545625,編號75郵箱,觀塘秀雅道聯合醫院專線小巴站
22.3408085733468,114.2082692313,編號109郵箱,斧山道185號∕宏景花園外專線小巴站
22.306202471396,114.18700449486,編號328郵箱,船澳街99號∕寶其利街
22.2847909438841,114.21613890625,編號275郵箱,康怡廣場(北)
22.3801834099821,114.126828120471,編號261郵箱,荃灣老圍村村口
22.3947537951206,114.277873644612,編號46郵箱,大網仔路大環村
22.2806191302795,113.935319226639,編號638郵箱,東涌逸東邨近逸東商場停車塲入口
22.3722435683609,114.118161232777,編號33郵箱,荃灣青山公路181-183號∕眾安街
22.2850133729701,114.152822053359,編號47郵箱,皇后大道中/威靈頓街
22.3055371727855,114.172350851049,編號437郵箱,油麻地佐敦道10號 / 德興街
22.3432957711504,114.125006547612,編號502郵箱,ATL郵件派遞室貨櫃碼頭路
22.289688388387,114.194967302821,編號389郵箱,英皇道288號
22.221068242752,113.914127869961,編號128郵箱,"大嶼山, 水口"
22.3736463709819,114.187341461722,編號415郵箱,沙田豐石街秦石邨石玉樓
22.2350466803169,113.961382965634,編號119郵箱,"大嶼山, 上長沙村"
22.4451156464605,114.026785430515,編號243郵箱,元朗橋樂坊大橋街市外
22.3612287804092,114.120019269174,編號430郵箱,葵福道晉昇工廠大廈
22.2845765561114,114.154692004456,編號QRD郵箱,皇后大道郵政局
22.2823219622973,114.150985657893,編號255郵箱,堅道99號
22.3122361285604,114.178600962433,編號OIM郵箱,愛民郵政局
22.4485394156659,113.95894166633,編號245郵箱,元朗上白泥明記士多
22.3830680284132,113.976568973429,編號474郵箱,屯門兆麟苑海榮路恆福花園
22.2852747396045,114.223856322295,編號281郵箱,"太康街, 鯉景灣"
22.5027268303818,114.111997160263,編號227郵箱,上水青山公路金錢村∕燕崗村
22.3140007141709,114.177908005168,編號306郵箱,何文田孝民街2號∕忠孝街俊民苑
22.4239978478385,113.987176368102,編號525郵箱,青山公路泥圍近巴士站
22.4557825670299,114.142458440167,編號156郵箱,林村放馬浦
22.2612367011746,114.132031915712,編號230郵箱,"域多利道, 下碧瑤灣"
22.4065304114611,113.968952268147,編號186郵箱,屯門建生邨良運街近社區會堂
22.3829477927125,114.187691733427,編號377郵箱,港鐵沙田站大堂
22.463160757878,114.00385586438,編號563郵箱,天水圍天晴邨天葵路晴雲樓對出巴士站
22.3155150064586,114.170023105904,編號213郵箱,彌敦道581-591號∕長沙街
22.2804067316105,114.182022906281,編號85郵箱,駱克道 463號
22.3281073843581,114.215184256983,編號231郵箱,九龍彩盈邨彩雲道／彩霞道
22.2812355328796,114.157108660091,編號024A郵箱,畢打街中建大廈
22.3144289806361,114.217921387366,編號312郵箱,觀塘勵業街46號∕偉業街
22.308942656045,114.174230648608,編號174郵箱,伊利沙伯醫院A座
22.2807400437482,114.176127194387,編號72郵箱,港灣道28號
22.2128462037577,114.027000658478,編號116郵箱,長洲北社新村
22.312140555275,114.283498577713,編號64郵箱,清水灣道上洋村
22.4841215091305,114.140900546993,編號WMG郵箱,華明郵政局
22.2989719426328,114.173412738862,編號2郵箱,金馬倫道 11號/ 加拿芬道
22.27795729278,114.165250996158,編號290郵箱,金鐘道 / 太古廣場第一座
22.429295595742,113.992278500778,編號417郵箱,屯門青山公路洪水橋段鍾屋村巴士站
22.3288812587163,114.206840654893,編號425郵箱,九龍灣麗晶花園啟仁街休憩處正門側
22.228329991884,114.217543179285,編號267郵箱,大潭道33號
22.2735331716452,114.156082213216,編號58郵箱,梅道 / 漆咸徑
22.2745020803764,114.189587044212,編號86郵箱,東院道/正民村
22.492775315719,114.140764203787,編號396郵箱,粉嶺祥華邨祥頌樓橋底
22.3559575653634,114.25163174552,編號166郵箱,西貢匡湖居近巴士站
22.4231968264137,114.236758004464,編號272郵箱,馬鞍山錦英苑近管理處
22.3318341744746,114.222644001955,編號643郵箱,順利邨紀律部隊宿舍對面利安道
22.312803130887,114.170357107011,編號25郵箱,油麻地窩打老道22號∕砵蘭街
22.3356845899667,114.187881241572,編號170郵箱,九龍城聯合道176號 / 杏林街
22.3086412883343,114.256637704089,編號160郵箱,將軍澳唐明苑唐煌樓的士站
22.2777821582387,114.223384187034,編號304郵箱,耀東邨小巴總站
22.3623356457696,114.114358509681,編號454郵箱,荃灣怡樂街海濱花園近巴士總站
22.2829987194678,114.273507139384,編號314郵箱,將軍澳工業邨 駿才街
22.3069239892837,114.231986739873,編號79郵箱,藍田晒草灣茜發道港鐵藍田站D1出口外
22.3082373583503,114.173807515058,編號150郵箱,伊利沙伯醫院護士宿舍
22.2887484260093,114.193802719413,編號148郵箱,英皇道165-175號
22.3250024743079,114.168451186693,編號555郵箱,港鐵太子站大堂近A出口
22.3387507967072,114.152305171806,編號CSW郵箱,長沙灣郵政局
22.2676084206602,114.184131733804,編號109郵箱,山村道 22-26號
22.4632771409998,114.148175404072,編號654郵箱,大埔圍頭村近巴士站
22.3361308026681,114.167399240175,編號547郵箱,九龍石硤尾白田邨盛田樓崇真會白田美善幼稚園旁
22.2816671284346,114.156549685921,編號343郵箱,皇后大道中30號 (娛樂行)
22.328948204326,114.160205169629,編號17郵箱,深水埗荔枝角道352號 / 桂林街
22.3203382198992,114.169388097417,編號554郵箱,旺角港鐵站近大堂近B出口
22.2817252448298,114.12254714658,編號181郵箱,域多利道 / 堅尼地城巴士休憩處對出
22.3942575048577,113.971379843696,編號327郵箱,杯渡路∕天后路
22.465665790632,114.004699026548,編號681郵箱,慧景軒天水圍天葵路33號
22.4459562080356,114.036639147144,編號663郵箱,港鐵元朗站近G出口
22.3433483064134,114.175720131645,編號284郵箱,九龍塘義德道33號∕筆架山道55號
22.2919037460776,114.206293207116,編號369郵箱,英皇道 666 號
22.2650173316593,114.001806821177,編號215郵箱,"大嶼山, 梅窩碼頭"
22.2780992916566,114.184781417021,編號75郵箱,希慎道8號
22.3825414589249,114.264596623669,編號675郵箱,西貢菠蘿輋路 / 躉場路近小巴站
22.4628152409462,113.999189749735,編號TYT郵箱,天悅郵政局
22.5140646280821,114.167740995179,編號256郵箱,粉嶺沙頭角道孔嶺村
22.3136500205601,114.255897104557,編號476郵箱,將軍澳寶琳路靈實醫院
22.2951863748007,114.27209578455,編號642郵箱,將軍澳康城路1號康城社區會堂外
22.3714487674259,114.115419583512,編號340郵箱,荃灣大河道57-63號∕鱟地方
22.3958841738371,114.283861452038,編號619郵箱,西貢西沙路浪徑新村對面巴士站
22.2868523374462,114.140094341213,編號152郵箱,皇后大道西368號/薄扶林道
22.2779313225099,114.168888692227,編號HEN郵箱,軒尼詩道郵政局
22.3327697014483,114.168887532986,編號566郵箱,港鐵石硤尾站近C出口
22.3733328518417,114.116256704074,編號185郵箱,荃灣青山公路279號
22.2867918169206,114.155039048707,編號44郵箱,統一碼頭道海港政府大樓對出
22.2218690984777,114.211153392934,編號135郵箱,赤柱村道/赤柱崗道
22.2806975663374,114.173459758633,編號280郵箱,港灣道 / 香港會議展覽中心
22.3358619609138,114.175547404456,編號345郵箱,又一村達之路∕生產力大樓
22.3327147875052,114.147077126186,編號12郵箱,海麗邨 / 深旺道巴士及小巴站後面
22.3897733889114,114.206630352061,編號512郵箱,石門安麗街中電中心外
22.2410670039486,114.155833811083,編號LTG郵箱,利東郵政局
22.2933555424395,113.950779284441,編號678郵箱,映灣園東涌健東路2號
22.2485289971877,114.163984514928,編號187郵箱,黃竹坑道27號
22.3725018382207,114.139451460237,編號594郵箱,葵涌大白田街石蔭東邨巴士站
22.2825166894475,114.154845642761,編號356郵箱,威靈頓街/擺花街
22.2942313074493,113.928402973213,編號573郵箱,赤鱲角駿裕路近機塲空運中心
22.3225105765152,114.21745591521,編號NTK郵箱,牛頭角郵政局
22.432590613387,114.102419913876,編號101郵箱,錦田公路八鄉古廟
22.4399741815712,114.066568172216,編號KMT郵箱,錦田郵政局
22.2843382081184,114.217363367095,編號338郵箱,康安街 / 康怡花園L座對面
22.2663409772512,114.235347221422,編號98郵箱,利眾街/康民街
22.2468516087317,114.245356331581,編號247郵箱,石澳大浪灣
22.3266801985604,114.226468609516,編號362郵箱,觀塘順天邨天瑤樓外巴士總站
22.3168374079545,114.218051179316,編號293郵箱,牛頭角道241號喜鵲樓
22.275584448,114.178071689799,編號79郵箱,愛群道近肇堅里
22.2369352553039,114.199391592814,編號170郵箱,淺水灣道125-127號
22.3349084675835,114.161007235524,編號127郵箱,深水埗青山道100號∕營盤街
22.2675682722436,114.232698009922,編號90郵箱,興民邨 / 民富樓
22.2670657427367,114.151941231414,編號326郵箱,賓吉道/紅梅閣
22.3668696626053,114.05887688145,編號117郵箱,青山公路深井村對出近巴士站
22.3575375111137,114.126758538531,編號496郵箱,興芳路223號新都會廣場B1地庫郵件派遞室外
22.4063670495824,113.962793192756,編號LGK郵箱,良景郵政局
22.3660885510419,114.011445284251,編號221郵箱,大欖水警基地
22.3187398294017,114.158384577243,編號617郵箱,大角咀維港灣海帆道小巴站對面
22.3356009391236,114.173088601031,編號623郵箱,九龍南山邨道香港城市大學教學樓對面
22.3196164729525,114.232052873865,編號SMP郵箱,秀茂坪郵政局
22.2744015866485,114.192485279724,編號225郵箱,大坑道 83號
22.4420614438059,114.166878195841,編號WTT郵箱,運頭塘郵政局
22.228309004886,113.92614772484,編號251郵箱,"大嶼山, 塘福懲教所"
22.351813159312,114.252248916812,編號149郵箱,南圍窩尾巴士站
22.2783279457168,114.194103228889,編號231郵箱,"勵德邨道, 勵德邨"
22.2251495226532,113.894906748161,編號143郵箱,大嶼山石壁監獄停車場外
22.2799649763707,114.185658695887,編號10郵箱,百德新街/怡和街
22.3366611695612,114.177712094505,編號565郵箱,港鐵九龍塘站大堂近E出口
22.2802956161565,114.17054005496,編號223郵箱,分域街 / 香港演藝學院
22.3575375111137,114.126758538531,編號253郵箱,興芳路223號新都會廣場B1地庫郵件派遞室內
22.3227763393251,114.212498064666,編號481郵箱,九龍灣德福花園近戲院
22.2780845436182,114.164163266477,編號264A郵箱,金鐘政府合署/法院道
22.3726851237818,113.966871303312,編號252郵箱,屯門湖翠路海翠花園輕鐵總站
22.3957465374876,114.198669363373,編號569郵箱,港鐵火炭站C出口
22.3069947139014,114.228371614692,編號247郵箱,觀塘茶果嶺道麗港城商場門口
22.3794087651901,114.187148662827,編號536郵箱,沙田正街希爾頓中心外面
22.3622146108185,114.019758739749,編號142郵箱,大欖涌路大欖懲教所路口
22.2666235907891,114.162260701897,編號219郵箱,文輝道/僑福道
22.3227239593452,114.212509698791,編號350郵箱,九龍灣德福花園近戲院
22.4922320485488,114.138427171107,編號389郵箱,港鐵粉嶺站大堂
22.2819915377732,114.15830304071,編號233郵箱,遮打道/遮打大廈
22.2846210391108,114.156471631421,編號49郵箱,干諾道中 / 恒生銀行總行大廈對出
22.3673975957752,114.062156230713,編號653郵箱,深井青山公路碧堤半島對出
22.2631096969675,114.238103208812,編號248郵箱,環翠邨街市/柴灣道
22.2774952971977,114.173249278582,編號147郵箱,軒尼詩道 / 灣仔港鐵站出口
22.3363856756194,114.159129707276,編號50郵箱,深水埗東京街40號/ 青山道
22.2832790976262,114.13024139917,編號35郵箱,卑路乍街/山市街
22.4979503789235,114.102958384486,編號641郵箱,坑頭路 坑頭村公所
22.4224823946196,114.029458522599,編號303郵箱,大棠路水蕉新村榕苑士多門口
22.4298193103559,114.095243996412,編號190郵箱,錦上路杜屋村巴士站傍
22.41392436985,114.20766405606,編號110郵箱,中文大學崇基學院巴士站
22.3199777058871,114.18769656098,編號200郵箱,馬頭圍道∕馬坑涌道
22.3605611658431,114.253923541563,編號603郵箱,西貢北圍村
22.498415374291,114.126135564715,編號460郵箱,上水保平路太平邨停車場地下
22.2804717799196,114.215353673911,編號24郵箱,康盛街/康怡花園D座
22.4203714915062,113.979854829449,編號518郵箱,屯門屯子圍五柳路
22.3051111357647,114.161156168944,編號645郵箱,"漾日居,港鐵九龍站外D1出口,大角咀"
22.3785172917162,114.259778883024,編號568郵箱,西貢北港村門口
22.4639658320724,114.195433917224,編號503郵箱,大埔露輝路嘉豐花園
22.3125033924805,114.222296058847,編號335郵箱,城東誌郵件派遞室巧明街100號
22.2679072086178,114.186547650258,編號HAV郵箱,跑馬地郵政局
22.4590480105542,114.174688376054,編號509郵箱,大埔全安路十一號那打素醫院正門
22.2236823873754,114.114792562121,編號257郵箱,南丫島 / 大灣新村
22.2873334465463,114.210424107032,編號302郵箱,英皇道/糖廠街
22.3628359588893,114.124615815877,編號123郵箱,葵盛邨第一座
22.2983313465823,113.92851120781,編號570郵箱,赤鱲角駿運路9號/超級一號門口
22.4090168192165,114.20479690876,編號435郵箱,大埔公路九肚山回旋處後
22.3338758648166,114.167351827659,編號424郵箱,石硤尾南昌街/偉智街
22.2746909589115,114.156546810477,編號133郵箱,馬己仙峽道/蒲魯賢徑
22.3198122162895,114.227182482748,編號409郵箱,觀塘協和街祥和苑
22.4135986296753,113.982818910218,編號FTI郵箱,富泰郵政局
22.2679873347298,113.992669303271,編號082郵箱,新龍圍與白银鄉交界
22.2638730011561,114.149421181379,編號52郵箱,加列山道18-22號/瑞燕大廈
22.4569396831227,114.213871086391,編號584郵箱,大埔三門仔教堂門口
22.3025146148325,114.171925877084,編號27郵箱,尖沙咀彌敦道172-174號∕山林道
22.4566891456101,113.997676115376,編號183郵箱,天水圍天瑞邨 天瑞路巴士總站
22.2959799614829,114.169333102655,編號432郵箱,尖沙咀廣東道海洋中心對面
22.2755826343959,114.174832847487,編號11郵箱,律敦治醫院 (近正門)
22.4266147504064,114.073745267599,編號171郵箱,錦上路石湖塘村21號附近
22.3062042102106,114.237171867286,編號541郵箱,藍田平田邨商場
22.3424890219659,114.16434481211,編號539郵箱,大窩坪帝景峰對出延平道
22.2822476877393,114.126830025455,編號101郵箱,卑路乍街 / 爹核士街
22.3922034968057,114.194290114322,編號338郵箱,火炭穗禾苑商場地下
22.3180258980822,114.191464230078,編號138郵箱,土瓜灣道335號/貴州街
22.3382447363943,114.136927000913,編號656郵箱,港鐵美孚西站
22.3189128603183,114.229732879217,編號209郵箱,曉光街21號／曉麗苑／秀麗街
22.3423648204813,114.181271891819,編號529郵箱,九龍塘廣播道∕馬可尼道10號
22.2979494283032,113.933929861309,編號578郵箱,赤鱲角機場觀景路國泰城
22.3593715318744,114.118421965107,編號586郵箱,葵芳永基路2-12號
22.3174697649774,114.281716755147,編號462郵箱,坑口永隆路
22.4769772793979,114.001361875174,編號287郵箱,輞井圍村足球場
22.2683589552598,114.181821620708,編號123郵箱,司徒拔道/東山台
22.2506177242481,114.136148610899,編號WFU郵箱,華富郵政局
22.3339129642072,114.195767046606,編號SPK郵箱,新蒲崗郵政局
22.2873297370556,114.138703668863,編號95郵箱,德輔道西/水街
22.2675355347654,113.997268809355,編號69郵箱,"大嶼山, 梅窩銀石街 / 涌口街"
22.4644715225574,113.989698986973,編號672郵箱,天水圍民德路鰲磡村村口
22.3206099403013,114.266242816117,編號630郵箱,將軍澳坑口村
22.3168459154316,114.226373897004,編號204郵箱,"觀塘協和街183號,月華街對面"
22.2791731726463,114.181125315593,編號6郵箱,堅拿道西/軒尼詩道
22.3326065338522,114.193052825974,編號278郵箱,東頭邨 東隆道街市小巴站
22.2781608948191,114.176872406888,編號312郵箱,史釗域道/軒尼詩道
22.2643140644506,114.236541685031,編號303郵箱,祥利街/吉勝街
22.3635234033309,114.171951899367,編號HNK郵箱,顯徑郵政局
22.2581595346604,114.137374672574,編號245郵箱,薄扶林花園
22.5308153127195,114.200975860862,編號255郵箱,沙頭角道麻雀嶺村下村村口
22.3673095799381,114.130172712621,編號KWC郵箱,葵涌郵政局
22.2794214549579,114.182995131282,編號130郵箱,波斯富街62號/羅素街
22.5189457970412,114.175455316985,編號103郵箱,沙頭角道馬尾下村
22.4774703406182,114.044947482529,編號FPK郵箱,錦繡花園郵政局
22.3349134984472,114.157440867833,編號198郵箱,長沙灣東京街工廠大廈第一座 / 長沙灣道
22.2861203612215,114.195194878682,編號182郵箱,天后廟道 / 炮台山道
22.458123351462,114.058626875261,編號168郵箱,新田青山公路逢吉鄉
22.2517084023834,114.192964909799,編號222郵箱,淺水灣道19-21號
22.5452761321326,114.220064962981,編號668郵箱,沙頭角近担水坑巴士站
22.2965494100874,114.237637412804,編號436郵箱,茶果嶺道消防局外
22.3145595924196,114.170604519711,編號451郵箱,旺角彌敦道∕咸美頓街
22.3445856211905,114.192727061867,編號CKY郵箱,竹園郵政局
22.4538825890677,114.174115252833,編號FUS郵箱,富善郵政局
22.4250082454159,114.212709644006,編號627郵箱,白石角香港科學園科技大道西一號核心大樓二座地下
22.3583759492609,114.108156440521,編號581郵箱,青衣地鐵站一樓大堂詢問處
22.3025941290246,114.179911960275,編號591郵箱,九龍理工大學紅磡過海隧道巴士站
22.2950118785075,113.924519906927,編號575郵箱,赤鱲角駿運路2號
22.3319093689299,114.16056785428,編號187郵箱,長沙灣道303號長沙灣政府合署
22.3625219340867,114.131393752094,編號291郵箱,港鐵葵興站外近B出口
22.395282037546,114.108476279571,編號238郵箱,川龍村∕荃錦公路十一咪半
22.4132019140223,113.977397011043,編號400郵箱,屯門青麟路∕兆樂閣兆康苑
22.2868259767807,114.143481915738,編號37郵箱,皇后大道西230號
22.3082767594101,114.187662657694,編號86郵箱,馬頭圍道21號∕大環道義達工業大廈門口
22.3026664312373,113.898185945419,編號577郵箱,赤鱲角飛機工程維修區
22.3389237381932,114.149520111775,編號542郵箱,長沙灣青山道580號
22.2889801644314,113.94120866053,編號582郵箱,東涌地鐵站大堂近A出口
22.3747669909758,114.124266668331,編號SWK郵箱,石圍角郵政局
22.3456705266731,114.188843099433,編號16郵箱,竹園翠竹花園翠竹街
22.2244729392473,114.111123894544,編號336郵箱,南丫島 / 榕樹灣大街
22.4865829389264,114.058968102272,編號626郵箱,元朗新潭路翠逸豪園對出巴士站
22.249932707789,114.169545100288,編號216郵箱,黃竹坑道/黃竹坑遊樂場外
22.3851383840671,114.198723057423,編號391郵箱,沙田大涌橋路富豪花園
22.3229879661071,114.176534644484,編號289郵箱,旺角嘉道理道55號∕布力架街
22.3811039886727,114.201897675652,編號414郵箱,沙田威爾斯親王醫院巴士總站對面
22.3732782581417,114.178458029383,編號236郵箱,港鐵大圍站外圍
22.2915299948436,113.947228620296,編號688郵箱,東涌映灣園16座外
22.4526921667126,113.99920264972,編號15郵箱,天水圍嘉湖山莊樂湖居巴士總站
22.2789420424963,114.177758306972,編號71郵箱,駱克道/杜老誌道
22.2781038863332,114.131105720305,編號236郵箱,"薄扶林道, 遊樂場"
22.3145695256692,114.170593843072,編號24郵箱,旺角咸美頓街12號 / 彌敦道560號
22.33484617735,114.218148686824,編號479郵箱,牛池灣街彩輝邨近16號小巴總站
22.5244425051923,114.194667296806,編號274郵箱,沙頭角上禾坑村
22.370847071704,114.110191267167,編號67郵箱,荃灣海盛路7號近祈德尊新邨
22.4544462526448,114.16115497436,編號122郵箱,大埔頭路18號太湖花園正門入口
22.3531143842373,114.062703820659,編號652郵箱,馬灣珀麗灣貝殼廣場
22.5293708295412,114.113993971165,編號429郵箱,港鐵羅湖站大堂禁區內
22.3198650919861,114.182398046302,編號616郵箱,常盛街近華英中學
22.2360632564703,114.223221980654,編號334郵箱,白筆山道紅山廣場
22.295633302367,114.016170861657,編號DBY郵箱,愉景灣郵政局
22.3660010955733,114.005502407715,編號45郵箱,青山公路青山別墅
22.276933933015,114.154727167966,編號21郵箱,羅便臣道1號A
22.5282840035359,114.158856499969,編號175郵箱,粉嶺坪輋路
22.3688069698052,114.114461454975,編號191郵箱,荃灣楊屋道55-57號
22.2384800097553,114.195378790515,編號176郵箱,淺水灣巴士站
22.3722516905579,114.118146664935,編號63郵箱,荃灣青山公路181-183號∕眾安街
22.3338402919073,114.191130989063,編號62郵箱,東頭邨 盈東樓 東頭邨道
22.5236793625904,114.215643338718,編號276郵箱,鹿頸陳鳳其士多門口
22.315413713669,114.186577141253,編號58郵箱,何文田浙江街樂民新村／靠背壟道
22.4522570107698,114.170588670443,編號421郵箱,安泰路∕安邦路大埔廣場
22.312324287402,114.226399476753,編號516郵箱,港鐵官塘站近大堂客務中心
22.449968831331,114.029983246986,編號583郵箱,元朗宏業東街東頭工業區
22.2864299156415,114.216499371391,編號197郵箱,太茂路/太古城道
22.2849019491945,114.137222589897,編號93郵箱,薄扶林道/聖安多尼堂
22.2303046924162,114.251514460238,編號67郵箱,石澳村
22.442290281976,114.091573370893,編號532郵箱,粉錦公路橫台山散村近巴士站
22.4489547262498,114.160046143565,編號262郵箱,大埔錦山路錦石新村公廁側
22.3191580920071,114.176944243728,編號70郵箱,文運道2號 / 文福道
22.3977291826484,114.195046350754,編號73郵箱,火炭坳背灣街金豪工業中心
22.3461252815357,114.128694471451,編號332郵箱,葵涌祖堯邨敬祖路巴士站
22.3254704742432,114.177422773822,編號53郵箱,太子道241-243號
22.3227999195286,114.25751639923,編號659郵箱,"港鐵寳琳站近A出口,電動扶梯旁"
22.222159069895,114.206093358278,編號296郵箱,赤柱馬坑邨
22.3022683779566,114.191664447513,編號488郵箱,海濱廣場/紅磡德豐街18-22號郵件派遞室
22.4506036229756,114.023143182689,編號426郵箱,元朗朗屏邨商場地下近巴士總站
22.5071526375049,114.121742298967,編號44郵箱,上水新運路卓運街
22.5096137818447,114.078817508275,編號281郵箱,新田落馬洲近邊境
22.2432654188141,114.146577061432,編號299郵箱,"海怡半島16座, 怡翠閣"
22.2061677997796,114.029745532744,編號227郵箱,長洲學校路1號中華便以利會長洲堂門前
22.426368311688,114.196504177883,編號250郵箱,大埔公路樟樹灘村巴士站
22.3170829015471,114.238427620667,編號635郵箱,寶達邨小巴站達峰樓
22.4241428414909,114.032174526346,編號172郵箱,大棠路紅棗田村
22.3376810668232,114.19860692111,編號146郵箱,大有街25號 / 六合街2號
22.4686712464781,114.209074334899,編號510郵箱,汀角路散頭角村
22.2806738079626,114.166735376519,編號383郵箱,添美道中信大廈對出
22.3343722758244,114.209322939766,編號548郵箱,"彩虹港鐵站近大堂,近B出口"
22.284041684332,114.142764515214,編號17郵箱,柏道/屋蘭士里
22.2691798577839,114.23632544351,編號301郵箱,柴灣東區醫院 主座大樓
22.3805221450411,114.212924476705,編號329郵箱,沙田小瀝源廣善街恆生商學書院巴士站
22.3224040836703,114.259891271426,編號427郵箱,將軍澳景林邨將軍澳警署
22.2775972641683,114.183035804229,編號241郵箱,禮頓中心
22.2857938654834,114.191083400755,編號157郵箱,歌頓道7號
22.3644988745411,114.139018629523,編號240郵箱,荃灣圍乪街石籬邨近石安樓
22.369366186814,114.180894079705,編號SNC郵箱,新翠郵政局
22.4020994220274,114.205002384133,編號459郵箱,沙田馬場小路側
22.2854913771876,114.154824800108,編號235郵箱,機利文街/德輔道中
22.3568029010194,114.096536075107,編號605郵箱,青衣長宏邨宏文樓側
22.3076803458715,114.192482193472,編號611郵箱,紅磡海逸豪園海逸道5座前
22.305419771215,114.172220807758,編號26郵箱,油麻地佐敦道10號 / 德興街
22.4986506670282,114.137647924973,編號32郵箱,粉嶺芬園馬會道巴士站
22.2462199193162,114.164842286636,編號288郵箱,惠福道
22.3791050000516,114.13587832092,編號LMS郵箱,梨木樹郵政局
22.3395597829769,114.195764896853,編號120郵箱,沙田坳道∕東頭邨道
22.3219694869794,114.230428020605,編號614郵箱,秀茂坪停車場大廈一號商舖門外
22.3348926966669,114.157179751327,編號557郵箱,"長沙灣港鐵站近大堂,近A出口"
22.3095518290079,114.223572318831,編號534郵箱,官塘開源道近鴻圖道
22.266128642054,114.192141868236,編號385郵箱,畢拉山道12號
22.2863383713464,114.15424923908,編號48郵箱,干諾道中/永和街
22.5456424972782,114.224219164668,編號STK郵箱,沙頭角郵政局
22.34060482702,114.134944071235,編號313郵箱,瑪嘉烈醫院正門口旁
22.3197885571308,114.253085825002,編號456郵箱,將軍澳康盛花園商場
22.2786159158535,114.170501317439,編號279郵箱,分域街/謝斐道
22.3513748612501,114.108861773087,編號453郵箱,青衣長環街青衣工業區金源中心正門旁
22.3303193445597,114.22704841767,編號SHU郵箱,順利郵政局
22.3329128288402,114.224378977548,編號333郵箱,觀塘利安道順利邨利恒樓
22.2450937500121,114.149527664615,編號ALC郵箱,鴨脷洲郵政局
22.4444321116972,114.170254837305,編號383郵箱,"港鐵大埔墟站大堂,近A出口."
22.4292948730994,114.088808082318,編號259郵箱,錦上路水流田村入口
22.2783983788541,114.174166202055,編號4郵箱,駱克道175號
22.3027855256015,114.181978120777,編號311郵箱,港鐵紅磡車站大堂
22.3338620569038,114.237553594193,編號159郵箱,清水灣道近炭山路小巴站
22.3367233353222,114.259167829673,編號296郵箱,大埔仔村巴士站
22.281741603304,114.153018619909,編號318郵箱,士丹頓街/些利街
22.498207722421,114.085320344343,編號208郵箱,新田青山公路麒麟村巴士站
22.378216160405,114.176350036395,編號MEL郵箱,美林郵政局
22.3086353629382,114.234372955471,編號239郵箱,藍田啟田道近啟田商場
22.2850680604817,114.150258353844,編號132郵箱,皇后大道中306號
22.2965042021935,114.01744210745,編號68郵箱,愉景灣碼頭外
22.4425472839024,114.036714460454,編號680郵箱,新時代廣場對出元朗元龍街八號
22.3306653158519,114.188974796667,編號56郵箱,九龍城賈丙達道九龍城廣場側侯王道
22.3736730473326,114.118012074882,編號546郵箱,荃灣港鐵站近大堂B及C出口
22.3109781656489,114.222147072602,編號80郵箱,駿業街／鴻圖道53號威明中心
22.3295950635985,114.190580187894,編號KCY郵箱,九龍城郵政局
22.4730011688803,114.232801415496,編號258郵箱,大埔大尾篤
22.326475024252,114.163411505736,編號116郵箱,深水埗黃竹街1號∕荔枝角道202號
22.3426777293138,114.209142361727,編號FSN郵箱,富山郵政局
22.345271914387,114.193028080214,編號404郵箱,竹園北邨巴士總站
22.2819084761997,114.158481593821,編號324郵箱,港鐵中環站近F出口
22.4586054565581,114.171861133714,編號237郵箱,大埔頌雅路富亨邨近巴士總站
22.3257196663646,114.152278330859,編號475郵箱,長沙灣副食品批發市場第一期
22.4012246506636,114.197069740643,編號386郵箱,火炭樂林路∕松頭下路
22.4841404722093,114.145205355871,編號184郵箱,粉嶺大埔公路和合石村村口
22.3544322119941,114.103807074046,編號105郵箱,青衣邨近巴士總站
22.283890457996,114.156448448749,編號199郵箱,永安集團大廈
22.3780142313421,114.265016170406,編號155郵箱,西貢公路 / 菠蘿輋路交界
22.282605204385,114.149048801936,編號92郵箱,西摩道4號
22.2980688453793,114.172013372674,編號28郵箱,尖沙咀彌敦道99號∕海防道
22.3402552171242,114.170517954163,編號644郵箱,達康路香港城市大學學生宿舍外
22.315408402317,114.219463908368,編號549郵箱,牛頭角港鐵站大堂近A出口
22.2546899860171,113.862190769293,編號150郵箱,天后古廟 / 大澳鄉事會
22.5307574381561,114.15902726349,編號657郵箱,打鼓嶺坪原路坪洋村運動場近小巴站
22.3514203178822,114.12709371521,編號397郵箱,葵涌荔景邨和景樓
22.3719474166644,113.992914436692,編號246郵箱,青山灣黃金海岸商場
22.3203175976588,114.174118818655,編號22郵箱,旺角亞皆老街117-121號∕嘉道理道
22.372430871729,114.121788674952,編號413郵箱,荃灣惠荃路22-26號綠楊新邨閘口前
22.3416348756818,114.127336962615,編號412郵箱,"HIT 4,貨櫃碼頭路"
22.2841442330193,114.150296372188,編號42郵箱,荷里活道/兒童遊樂場對出
22.2269308013552,114.110403040122,編號LMA郵箱,南丫郵政局
22.3806676873814,114.216152188547,編號KWY郵箱,廣源郵政局
22.2712466048083,114.149881591202,編號PEK郵箱,山頂郵政局
22.3230300796534,114.187182367656,編號193郵箱,馬頭圍邨入口馬頭角道1號
22.3175022431026,114.224004934218,編號384郵箱,觀塘瑞寧街及雲漢街交界
22.3463485091597,114.126296560538,編號LKG郵箱,茘景郵政局
22.3172569453423,114.168650618406,編號23郵箱,旺角山東街32C∕新填地街
22.2511013003337,113.891072344539,編號261郵箱,"大嶼山, 鹿湖"
22.3011898892611,114.17849892363,編號376郵箱,尖東科學館道∕100 號加連威老道港晶中心
22.3083192030021,114.187666543049,編號592郵箱,馬頭圍道21號∕大環道義達工業大廈門口
22.3953556046289,114.198006025181,編號219郵箱,港鐵火炭站外圍巴士總站
22.2372469123616,114.198670910354,編號RPB郵箱,淺水灣郵政局
22.2081229339052,114.213546497757,編號229郵箱,赤柱富豪海灣對面
22.3335845080743,114.147493369815,編號677郵箱,深盛路深水埗官立小學 / 泓景台
22.2622640603928,114.134163123079,編號258郵箱,"域多利道, 上碧瑤灣"
22.30994359565,114.2241295342,編號140郵箱,觀塘開源道56號 / 興業街
22.286427654713,114.160842882487,編號84郵箱,中環天星碼頭
22.3639160026825,114.127465018815,編號290郵箱,葵聯路盛強樓近巴士站
22.3071182067711,114.167172148689,編號212郵箱,油麻地渡船街文英街文英樓
22.4438650500735,114.028870553586,編號158郵箱,元朗 裕景坊 熟食檔外
22.2681844065316,114.156779636407,編號54郵箱,施勳道 / 種植道
22.3338263988036,114.171898574246,編號115郵箱,大坑東道近大坑東二號遊樂場入口
22.2807246915103,114.176092262592,編號313郵箱,港灣道28號
22.3314582401142,114.165222318491,編號51郵箱,南昌街∕大埔道
22.34413044415,114.253145655356,編號365郵箱,清水灣道松濤苑七咪半
22.3043686006704,114.171964632094,編號552郵箱,佐敦港鐵站近E出口
22.3011763431785,114.178514451004,編號601郵箱,加連威老道100號 港晶中心 / 科學館道
22.3295652292762,114.209665442489,編號308郵箱,九龍灣啟業邨啟寧樓
22.3264067390865,114.168616112544,編號197郵箱,西洋菜街北328號 / 界限街4D
22.2417003124352,114.157935838375,編號384郵箱,利東邨道東平樓對面
22.2641453393042,114.238561601175,編號367郵箱,怡泰街 / 怡盛里
22.2661894298076,114.18877711898,編號73郵箱,成和道/藍塘道
22.4458661605496,114.030817204084,編號132郵箱,元朗東堤街∕泰祥街
22.3815023579721,114.206508183246,編號360郵箱,沙田圓洲角牛皮沙街愉翠商場外
22.448462417189,114.032836157358,編號307郵箱,元朗舊墟路南邊圍公厠對面
22.2687538948504,114.129135276568,編號33郵箱,沙宣道 8號
22.3981315430003,113.977120375521,編號399郵箱,屯門青山公路169-181號錦興大廈前行人天橋下
22.2828111932797,114.155636427157,編號357郵箱,皇后大道中 70 號
22.376065991781,114.176988954829,編號47郵箱,大圍大圍道33號恒生銀行外
22.3661175603253,114.119015296562,編號330郵箱,荃灣楊屋道144-146號
22.3108068726405,114.191058763494,編號218郵箱,紅磡道衛安中心
22.314796313562,114.176695775518,編號302郵箱,何文田山道15-16號
22.260342933081,114.149515006775,編號51郵箱,加列山道/明德醫院
22.3366121745919,114.16815539553,編號83郵箱,"白雲街, 澤田樓 白田邨"
22.3090035095046,114.26178654154,編號682郵箱,將軍澳廣場大堂出入口
22.3233801041378,114.161841331431,編號194郵箱,大角咀道169號∕惠安街
22.3336703168318,114.2147809979,編號393郵箱,牛池灣清水灣道彩雲邨小巴站
22.3703864455597,114.099858643024,編號TWW郵箱,荃灣西郵政局
22.3776020084945,114.17185430846,編號610郵箱,碧田街18號恆峰花園
22.2836299157466,114.147537765025,編號28郵箱,醫院道 / 般咸道
22.3411720910038,114.192474280504,編號WTS郵箱,黃大仙郵政局
22.2733130868011,114.184011715433,編號9郵箱,黃泥涌道81號
22.3314964317872,114.169800044808,編號77郵箱,窩仔街 / 大坑東道
22.349651432784,114.122116050108,編號366郵箱,葵涌貨櫃碼頭路現代貨箱碼頭有限公司行政樓
22.5071547233787,114.128220995721,編號43郵箱,上水鳳南路翠麗花園近巴士站
22.4706167558735,114.219245984808,編號286郵箱,大埔汀角村
22.2807430972096,114.155028341997,編號323郵箱,德己立街41號
22.3784712217881,114.129838850177,編號339郵箱,上葵涌象山邨巴士總站
22.3989634658487,114.212447545644,編號326郵箱,馬鞍山阿公角街沙田醫院
22.2603153971663,114.231088498441,編號306郵箱,"峰華邨,柴灣"
22.4010075101158,113.966258720992,編號598郵箱,山景邨景麗樓
22.3001827149415,114.167480262559,編號455郵箱,尖沙咀廣東道中港城平台第一座
22.2876050263998,114.151909456321,編號269郵箱,信德中心/干諾道中
22.424136749585,114.076549361601,編號309郵箱,錦上路元崗村村口
22.3392038793817,114.186727316267,編號LFU郵箱,樂富郵政局
22.2632772152542,114.248068298277,編號SSW郵箱,小西灣郵政局
22.3576219264718,114.128173053125,編號448郵箱,港鐵葵芳站外近垃圾站
22.4405905699897,114.022080779378,編號629郵箱,元朗元朗體育路御庭居外
22.2918779070504,114.204299016025,編號154郵箱,英皇道560號
22.2775407578716,114.230173348991,編號16郵箱,筲箕灣東大街169號
22.2763030991135,114.157961274289,編號19郵箱,堅尼地道22號A/纜車徑
22.3709323013591,114.132204681989,編號325郵箱,大窩口國瑞道116-120號城市工業大廈
22.3253383351786,114.186586566231,編號112郵箱,九龍城亞皆老街220號∕富寧街播道醫院外
22.3014653074869,114.236194506683,編號163郵箱,油塘道油麗邨逸麗樓
22.2678249545902,114.234672551169,編號226郵箱,泰民街樂翠台
22.2633880992184,114.189065033543,編號158郵箱,藍塘道138-140號/箕璉坊
22.3269942105207,114.250813568943,編號513郵箱,將軍澳村寶康路
22.321537382831,114.207914521975,編號507郵箱,九龍灣常悅道∕企業廣場
22.2974096755341,114.175416745607,編號1郵箱,21-23 漆咸道 / 麼地道
22.2667891783571,114.127296379931,編號274郵箱,沙灣徑
22.2657810261235,114.250955018231,編號376郵箱,藍灣半島巴士總站
22.344877632423,114.197814917127,編號288郵箱,鳳凰村雙鳳街32-34號∕金鳳街
22.3266310541352,114.205644336714,編號423郵箱,啟華街 / 宏天廣場
22.2856515425327,114.196301032077,編號CLV郵箱,雲景道郵政局
22.3297834309982,114.172729608813,編號55郵箱,又一村高槐道∕玉蘭路
22.2864312664874,114.160838030231,編號83郵箱,中環天星碼頭
22.2727914055095,114.160991914002,編號243郵箱,馬己仙峽道15號
22.2777199670659,114.185516889804,編號361郵箱,新寧道 1-5 號
22.4915105458523,114.061076603572,編號151郵箱,新田青山公路米埔新村正門對面巴士站
22.2509989516128,114.149795244803,編號339郵箱,田灣街/田灣商場
22.3150013009951,114.222135753741,編號6郵箱,牛頭角道327號 琼林大厦
22.3496073136443,114.100171009902,編號431郵箱,青衣長康邨青華苑對面
22.3318617776101,114.163537179287,編號SSP郵箱,深水埗郵政局
22.3798335752416,114.268810100112,編號470郵箱,西貢翠塘花園門口
22.2777409170009,114.180977784832,編號249郵箱,堅拿道西15號/霎西街
22.2782113648591,114.18257008138,編號386郵箱,銅鑼灣時代廣場
22.4493526289896,114.166825214237,編號273郵箱,大埔寶鄉街∕普益街
22.4986038049371,114.141995960292,編號210郵箱,粉嶺聯和墟和隆街一號
22.3764640829789,114.183923780993,編號544郵箱,大圍文禮路∕文林路
22.4586031969168,114.003094959732,編號649郵箱,天水圍天恩路海逸酒店外
22.3095480968452,114.2298361088,編號KEA郵箱,東九龍郵政局
22.3976944521228,114.190013901489,編號447郵箱,火炭黃竹洋街1-3號∕鉛礦凹街
22.2858923340106,114.139884993139,編號272郵箱,西營盤郵政局外
22.4122776509502,113.979237852484,編號665郵箱,港鐵兆康站近E出口
22.252845693675,114.136565126478,編號244郵箱,華富邨華生樓
22.4593392500805,114.19779712586,編號495郵箱,大埔汀角路72號雅景花園對出巴士站
22.4718094980151,114.22621505862,編號674郵箱,大埔汀角路蘆慈田村近巴士站
22.2650763814589,114.249518719586,編號337郵箱,富欣花園 / 富欣道
22.3745850183643,113.960607612066,編號395郵箱,屯門湖翠路美樂花園
22.4141513147091,114.224996128377,編號695郵箱,馬鞍山欣安邨欣悅樓對出行人道
22.3418204002853,114.193337351364,編號564郵箱,"港鐵黃大仙站近大堂,近客務中心"
22.3670419167848,113.996005503242,編號550郵箱,屯門青龍路蟠龍半島商場外
22.2587365380661,114.137145548895,編號PFL郵箱,薄扶林郵政局
22.3074861943808,114.267124419868,編號579郵箱,將軍澳蓬萊路近公共小巴站清水灣半島外
22.2623919179016,114.250746580134,編號295郵箱,佳翠苑 /小西灣道
22.3281401543823,114.162144638687,編號57郵箱,深水埗南昌街81-83號∕大南街
22.3199366004048,114.193255187357,編號121郵箱,土瓜灣道 / 明倫街2號
22.3200688249731,114.269780310861,編號372郵箱,坑口道聖雲仙教堂對開
22.4462934256478,114.020350084806,編號358郵箱,元朗水邊圍邨山水樓第六座
22.2068194491046,114.028346375456,編號CCU郵箱,長洲郵政局
22.2866739881309,114.152037710275,編號344郵箱,港鐵上環站近B出口
22.2187638924659,114.208935439197,編號353郵箱,龍德苑怡德閣
22.3239402661938,114.203741352883,編號108郵箱,香港國際貿易展覽中心郵件派遞室宏展街
22.321855911984,114.189832056895,編號8郵箱,馬頭角道37號 / 炮仗街
22.2911803687166,114.200972342147,編號320郵箱,英皇道470號
22.2812208891386,114.140333543926,編號29郵箱,旭龢道/干德道
22.3867943676939,113.973961200148,編號485郵箱,屯門友愛邨愛智樓輕鐵站
22.5029261312434,114.129351789658,編號524郵箱,上水龍琛路龍豐花園外面
22.3882965471722,113.976464381822,編號OTG郵箱,安定郵政局
22.360741491883,114.136227384663,編號74郵箱,"嘉翠園巴士站,葵涌"
22.3166547707283,114.173224987147,編號KWW郵箱,廣華街郵政局
22.2710776640866,114.149477023835,編號192郵箱,山頂道/夏力道
22.3882912028788,113.980203979846,編號54郵箱,屯門青匯街置樂花園
22.3215801578711,114.256971185025,編號535郵箱,將軍澳貿泰路新都城第一期商場停車場出入口
22.2524335714064,113.86564266187,編號253郵箱,"大澳, 龍田邨"
22.3654467091366,114.133904561529,編號167郵箱,大連排道∕葵榮路
22.3223723477384,114.19118417482,編號137郵箱,九龍城道木廠街6號 / 九龍城道208A
22.2785040426896,114.179139061507,編號138郵箱,軒尼詩道344號
22.3822637969225,114.13926726976,編號267郵箱,城門路和宜合村
22.3220340764698,114.207856395083,編號KBY郵箱,九龍灣郵政局
22.27852488369,114.238431096487,編號HFC郵箱,杏花邨郵政局
22.3293549284211,114.213363629334,編號693郵箱,九龍九龍灣彩榮路彩德邨近彩德商場.
22.2661112808647,113.997974040005,編號MWO郵箱,梅窩郵政局
22.4595081947087,114.005771468644,編號501郵箱,天水圍天龍路
22.4183799388854,113.982557794199,編號97郵箱,青山公路藍地行人天橋下面
22.3258253563578,114.174217717655,編號129郵箱,基堤道 / 太子道
22.2475534054844,113.980806517315,編號117郵箱,"大嶼山, 貝澳老圍村"
22.3745045691146,114.108345638769,編號367郵箱,荃灣白田霸街5-21號
22.3799463655286,114.180641922372,編號484郵箱,大圍銅鑼灣山道近教堂
22.4332631833522,113.99673578923,編號98郵箱,青山公路洪水橋翠珊園對出巴士站
22.5364255449464,114.150620728685,編號176郵箱,坪輋路∕打鼓嶺 (禁區內)
22.3220639060234,114.168177648631,編號MGK郵箱,旺角郵政局
22.3116334641838,114.187220348951,編號GAV郵箱,機利士路郵政局
22.4365894099498,114.069007139876,編號297郵箱,錦上路吳家村巴士站
22.3296660852137,114.177004433666,編號13郵箱,九龍塘金巴倫道29號∕舒梨道
22.4097245464002,113.973977457344,編號147郵箱,屯門青松觀路青山醫院入口
22.301190800036,114.176294013433,編號130郵箱,漆咸道83號百利商業大廈∕天文臺道
22.3675864291204,114.013835880828,編號612郵箱,屯門小欖浪琴軒
22.2977266552144,114.177446917786,編號354郵箱,尖東麼地道尖沙咀中心
22.361643726331,114.044877199458,編號145郵箱,青山公路近青龍頭村巴士站
22.3644995453426,114.259101622527,編號192郵箱,白沙灣停車場
22.219488185156,114.203795092227,編號201郵箱,舂磡角道41號
22.4607485729194,114.027173753386,編號519郵箱,宏利街元朗工業邨近巴士總站
22.3020192479468,114.011194733501,編號372郵箱,"愉景灣, 觀星樓"
22.306121219101,114.292070348256,編號472郵箱,西貢清水灣∕相思灣
22.3961458332423,113.965814470586,編號402郵箱,屯門山景邨景榮樓
22.3822336555659,114.272326810814,編號SKG郵箱,西貢郵政局
22.2748159026218,114.231112525382,編號139郵箱,靄寧園/柴灣道
22.4448448024747,114.131181430558,編號388郵箱,大埔林錦公路/大菴路交界巴士站
22.4579643710554,114.177428188659,編號331郵箱,大埔汀角路漁角村
22.3141320741512,114.164218250871,編號567郵箱,油麻地海泓道8號香港管理專業協會外
22.2816235690784,114.154915646553,編號WYN郵箱,雲咸街郵政局
22.3365701412849,114.148190689789,編號323郵箱,長順街∕長荔街
22.3196116358616,114.244787117414,編號403郵箱,將軍澳坑口馬游塘村
22.3707919224261,114.14153363923,編號374郵箱,荃灣安捷街安蔭邨商場
22.2833853788046,114.191274315142,編號HFS郵箱,興發街郵政局
22.2970420841745,114.172748032742,編號551郵箱,尖沙咀港鐵站近大堂近G出口
22.4322760521381,114.028615713254,編號133郵箱,大棠路崇正新村
22.2655811274895,114.152098670412,編號53郵箱,貝璐道 / 歌賦山里
22.2786201521934,114.188256145297,編號89郵箱,銅鑼灣道/聖保祿醫院
22.3195354835069,114.211467436898,編號324郵箱,常怡道∕偉業街
22.2765957932234,114.171375649725,編號278郵箱,莊士頓道/盧押道
22.5022743457172,114.097710919681,編號102郵箱,上水古洞村近街市
22.3674664306432,114.126232628662,編號320郵箱,上角街葵涌邨五期近巴士站
22.3184815802645,114.222535789581,編號318郵箱,牛頭角功樂道浸信會/康寧道
22.3347675029201,114.206228429801,編號CHC郵箱,彩虹邨郵政局
22.2819795773703,114.156461340077,編號317郵箱,皇后大道中 31號
22.3643362067084,114.179330771942,編號316郵箱,紅梅谷路松柏路世界花園
22.3907203250299,113.96581197518,編號486郵箱,青山村楊青路
22.3086703798772,114.234940725416,編號LMT郵箱,藍田郵政局
22.3483454278408,114.130179028332,編號607郵箱,荔景山荔崗街浩景臺
22.3419130347854,114.166679523522,編號438郵箱,大窩坪筆架山花園英語學校旁邊
22.3173164246403,114.266352335089,編號TKO郵箱,將軍澳郵政局
22.2812513120347,114.161011338584,編號112郵箱,遮打道/會所街
22.3172282408107,114.174783726907,編號60郵箱,何文田街6號∕窩打老道70號
22.3233230208679,114.255205645704,編號490郵箱,將軍澳寶豐路/育雅里
22.3365078831172,114.240255268458,編號285郵箱,井欄樹清水灣大廈
22.2781788873068,114.172100411569,編號271郵箱,駱克道 93-107號
22.371154295642,114.125577843166,編號279郵箱,荃灣國瑞路／河背村4號
22.2805225087394,114.153302162158,編號27郵箱,堅道43號/奧卑利街
22.303279634791,114.160220825329,編號355郵箱,"環球貿易廣場郵件派遞室L3,1號柯士甸道西"
22.496434565594,114.124745602286,編號608郵箱,上水保健路北區醫院正門出口
22.3263385829654,114.217692890108,編號477郵箱,彩霞邨彩月樓彩禧道
22.3827850200703,114.190622307348,編號604郵箱,沙田橫壆街好運中心巴士站
22.3293394834636,114.15477327861,編號640郵箱,長沙灣富昌邨/富旺樓
22.3407390411779,114.187290456437,編號203郵箱,橫頭磡邨富美街宏暉樓
22.2770532393816,114.239873294043,編號273郵箱,柴灣杏花邨盛泰道杏花邨地鐵站近A1出口麥當奴餐廳對面
22.4952357564302,114.143359293667,編號38郵箱,粉嶺安樂村樂業路∕安居街
22.3619261980981,114.102785674145,編號CFT郵箱,長發郵政局
22.3059997053073,114.251214969564,編號CMG郵箱,彩明郵政局
22.3382334026666,114.138611215505,編號559郵箱,"美孚港鐵站近大堂,近客務中心"
22.2790428466573,114.229271523083,編號SKN郵箱,筲箕灣郵政局
22.3001540174815,114.172103554354,編號128郵箱,尖沙咀彌敦道美麗華酒店門口
22.3114500841657,114.259681947251,編號615郵箱,將軍澳尚德邨巴士總站
22.4242262068352,114.23194845179,編號MOS郵箱,馬鞍山郵政局
22.3541032797139,114.09757641714,編號441郵箱,青衣長亨邨巴士站外
22.337223776013,114.176333675352,編號380郵箱,"港鐵九龍塘站外,F出口,根德道近真光里"
22.2744185452642,114.172740926842,編號WCH郵箱,灣仔郵政局
22.3155258976651,114.182183378193,編號HMT郵箱,何文田郵政局
22.3694815971382,114.116975897524,編號468郵箱,荃灣沙咀道286號/眾安街
22.4475459760843,114.025110892403,編號664郵箱,港鐵朗屏站A出口
22.2108400819782,114.028530295928,編號124郵箱,長洲國民路/新興街
22.3975416487995,114.199779654858,編號428郵箱,沙田樂景街銀禧花園
22.3312295669104,114.209658066605,編號90郵箱,觀塘道53號啟德大廈
22.4526846001551,114.154998637693,編號517郵箱,大埔梅樹坑路帝欣苑
22.3855486340183,114.186905380581,編號SCL郵箱,沙田中央郵政局
22.3385168187096,114.158479049767,編號LCU郵箱,李鄭屋郵政局
22.3729252629969,114.102507986849,編號625郵箱,荃灣西青山公路 530 號麗城花園第一座
22.4224578626654,114.226945500491,編號505郵箱,馬鞍山頌安邨近巴士總站
22.2644856098371,114.184368304839,編號18郵箱,司徒拔道41號
22.2861403209812,114.134716753658,編號36郵箱,皇后大道西520號
22.4943211322826,114.126579231326,編號342郵箱,上水清河邨巴士總站近商場
22.2630706572434,114.233708151118,編號232郵箱,興華(二)邨 / 安興樓
22.2952520287585,114.16804343999,編號177郵箱,海運大廈大堂詢問處
22.4726807909084,114.109588804879,編號144郵箱,粉錦公路蕉徑
22.4250221240953,114.22819943533,編號618郵箱,馬鞍山鞍駿街雅濤居外面
22.4417098439074,113.991589844784,編號683郵箱,元朗新生村村公所前
22.3775026813631,114.104153341065,編號346郵箱,荃灣荃景圍安逸街荃威花園近巴士總站
22.2825338471277,114.154841758711,編號46郵箱,威靈頓街/擺花街
22.3183487938174,114.169696850389,編號352郵箱,旺角彌敦道636號銀行中心／奶路臣街
22.3012697189671,114.19020475281,編號226郵箱,紅磡小輪碼頭
22.2841198922089,114.156900600054,編號266郵箱,砵典乍街/干諾道中
22.4717964815808,114.05642031008,編號35郵箱,元朗新潭路新圍村村公所附近
22.2856508137728,114.142154737042,編號121郵箱,第三街56號/正街
22.3021287761777,113.930936496263,編號571郵箱,空郵中心外面
22.2085637154905,114.028828486035,編號66郵箱,長洲碼頭
22.4501071466197,114.161398338422,編號446郵箱,大埔太和邨麥當奴餐廳對出
22.3782433947856,114.135512504453,編號692郵箱,荃灣梨木樹邨梨樹路梨木樹商場對面
22.4620467030794,114.187160595646,編號669郵箱,大埔下坑巴士站
22.2348761564095,113.957445960895,編號118郵箱,"大嶼山, 長沙下村"
22.4600770199447,114.328110390427,編號699郵箱,西貢海下灣村
22.2755733222645,114.157111394474,編號20郵箱,麥當勞道24號
22.3376821038871,114.263171652816,編號251郵箱,香港科技大學
22.2487978062744,114.153211423067,編號268郵箱,香港仔大道/奉天街
22.4303276705705,114.256735261333,編號224郵箱,西貢西沙路泥涌
22.3613692085999,114.133119392635,編號449郵箱,大連排道中華電力分站
22.3600577233011,114.129039201183,編號KWF郵箱,葵芳郵政局
22.2463520759503,113.889004059052,編號262郵箱,"大嶼山, 羌山"
22.323090889869,114.179691108361,編號21郵箱,九龍醫院西翼正門
22.3164654019425,114.23291835888,編號260郵箱,"秀明道,秀茂坪邨,秀安樓"
22.3043535545877,114.252885285589,編號648郵箱,港鐵調景嶺站近A2出口
22.3914039888655,113.978708007193,編號294郵箱,屯利街1號華都花園對出巴士站
22.4953167591401,114.131218336371,編號126郵箱,上水百和路華慧園巴士站
22.2848180974996,114.037503874076,編號378郵箱,坪洲渡輪碼頭
22.4449501549529,114.022702538413,編號YLG/DO郵箱,元朗青山道269號元朗民政事務處大厦地下
22.2861781891792,114.146605681598,編號110郵箱,皇后大道西92號
22.3678921064861,114.124454697676,編號162郵箱,大窩口道富安樓大窩口邨
22.2794461208258,114.192298569349,編號125郵箱,銅鑼灣道 / 浣紗街
22.2880338851929,114.141635966374,編號38郵箱,德輔道西235號
22.5057318464284,114.132426869624,編號359郵箱,上水天平路安國新邨
22.2703146811562,114.156333984544,編號55郵箱,施勳道 / 醫院徑
22.3139485760873,114.221258028691,編號587郵箱,官塘道388號創紀之城第一座郵件派遞室
22.323250969678,114.248951881774,編號135郵箱,將軍澳翠林邨巴士總站
22.2659182918679,114.244759220084,編號160郵箱,柴灣道 / 常安街
22.3575740671898,114.128181807495,編號348郵箱,港鐵葵芳站外面近垃圾站
22.2363209550995,114.110514048682,編號270郵箱,南丫島 / 北角舊村33號
22.3971071464111,114.193509933555,編號FOT郵箱,火炭郵政局
22.2474086045082,114.157945744149,編號374郵箱,香港仔大道48-52號
22.3183831305126,114.264343896003,編號222郵箱,將軍澳厚德邨停車塲入口
22.4629400383817,114.206972424208,編號263郵箱,汀角路船灣村
22.3910241428375,113.976780933813,編號TCL郵箱,屯門中央郵政局
22.3669218516993,114.123308397443,編號254郵箱,石頭街大窩口邨富國樓
22.2509884751254,114.171689991535,編號381郵箱,黃竹坑道99號
22.5228635975026,114.097713779742,編號593郵箱,新屋村馬草壟
22.287823905201,114.20995941287,編號88郵箱,港鐵鰂魚涌站A出口對出
22.2864951593652,114.151892186383,編號141郵箱,德輔道中/禧利街
22.2799749117585,114.185627646124,編號307郵箱,百德新街/怡和街
22.2055388704365,114.13144735695,編號256郵箱,南丫島南索罟灣警崗旁
22.333122009749,114.215420535366,編號NCW郵箱,牛池灣郵政局
22.3311012801861,114.162119091085,編號556郵箱,深水埗港鐵站近大堂近D1出口
22.3136639857449,114.224869381331,編號697郵箱,觀塘裕民坊近裕民坊休憩花園入口.
22.2698714694459,114.184816851239,編號25郵箱,成和道1號B/黃泥涌道
22.3664012146297,114.137363664492,編號450郵箱,荃灣打磚砰街∕和宜合道
22.2881086476255,114.203555938231,編號218郵箱,天后廟道/寶馬山花園
22.3744814625418,114.136248645521,編號418郵箱,荃灣和宜合道285號古坑村
22.2787763406618,114.164822048948,編號340郵箱,港鐵金鐘站近C出口
22.2836627295127,114.213512824036,編號221郵箱,柏蕙苑/基利路
22.2818166994324,114.12907553853,編號KTN郵箱,堅尼地城郵政局
22.4416272137298,114.01111204665,編號99郵箱,青山公路屏山村村口
22.3764507483579,114.110759542419,編號585郵箱,荃灣荃景圍愉景新城警署斜對面
22.2576109752466,114.199450204919,編號282郵箱,陽明山莊
22.2924574502849,114.199933251681,編號145郵箱,渣華道/書局街
22.3363751822256,114.199074602628,編號201郵箱,七寶街／八達街
22.2836898580298,114.133005790163,編號104郵箱,施德堂 / 薄扶林道
22.2799515820336,114.158882593064,編號59郵箱,皇后大道中渣打銀行大廈對面
22.2849066888528,114.215502383459,編號328郵箱,港鐵太古站近A出口
22.3614152672628,114.133130058024,編號344郵箱,大連排道中華電力分站
22.3619845560013,114.10606240085,編號613郵箱,灝景灣會所主入口青衣
22.4092893430999,113.966955230106,編號628郵箱,屯門嗚琴路寶田中轉房屋近巴士站
22.371212499155,114.136607875799,編號269郵箱,荃灣和宜合道159 - 165號
22.4456694997006,114.029055161882,編號YLG郵箱,元朗郵政局
22.368884543683,114.121679382134,編號230郵箱,荃灣荃富街巴士站
22.332204192511,114.156363781554,編號LKK郵箱,麗閣郵政局
22.4081129775268,113.979378739634,編號497郵箱,青山公路彩暉花園
22.3977057059533,114.195023040347,編號458郵箱,火炭坳背灣街金豪工業中心
22.2822289221524,114.14569829216,編號96郵箱,干德道41號
22.3922649324796,114.206495899699,編號440郵箱,沙田大涌橋路安景街翠湖花園
22.3358199033239,114.155340125146,編號217郵箱,長沙灣道∕發祥街
22.4538983192289,114.025475104377,編號684郵箱,元朗橫洲定福花園正門對面
22.2810316691905,114.181444611575,編號103郵箱,告士打道伊利莎伯大廈對出
22.4490655453797,114.005887258945,編號666郵箱,港鐵天水圍站近C出口
22.2448835171218,114.166887334621,編號308郵箱,南朗山道金寶花園