latitude,longitude,name,address
22.283733,114.151492,華興里公廁,城煌街及華興里交界
22.2722,114.24361,常安街公廁,常安街新巴車廠對面
22.281325,114.230214,東喜道公廁,東喜道 28 號
22.282368,114.191001,興發街公廁,興發街近維多利亞公園入口
22.285273,114.191676,永興街公廁,永興街15號
22.288196,114.193093,油街公廁,油街3號側
22.293194,114.199922,書局街北角渡海小輪碼頭公廁,書局街34號
22.264876,114.237199,寧富街公廁,寧富街近巴士總站
22.277604,114.230554,金華街公廁,金華街與宏華街交界
22.282208,114.232496,亞公岩村道臨時公廁,亞公岩村道與東旺道交界
22.279074,114.226717,南安街公廁,南安街81號
22.281421,114.223226,海寧街公廁,海寧街與興民街交界
22.283692,114.211811,鰂魚涌街市公廁,鰂魚涌街38號
22.291136,114.205547,百福道公廁,百福道與健康中街交界
22.293075,114.203447,渣華道公廁,渣華道北角汽車渡海小輪碼頭
22.29197,114.19864,糖水道公廁,糖水道與春秧街交界
22.2792,114.1928,蓮花宮公廁,大坑蓮花宮蓮花街
22.27034,114.17154,寶雲道公廁,寶雲道近灣仔峽道
22.275575,114.17278,春園街公廁,春園街與交加街交界
22.269382,114.18519,成和道公廁,成和道與奕蔭街交界
22.276699,114.19488,大坑道公廁,大坑道與勵德村道交界
22.281772,114.17596,灣仔碼頭公廁,灣仔碼頭巴士總站側
22.275004,114.17383,灣仔街市公廁,皇后大道東258號
22.2783,114.19175,華倫街公廁,華倫街與施弼街交界
22.278955,114.18993,摩頓臺公廁,銅鑼灣徑巴士總站側
22.274314,114.18326,黃泥涌道公廁,黃泥涌道95號對面
22.274882,114.17999,摩利臣山道公廁,摩利臣山道近體育道
22.280177,114.18091,堅拿道公廁,堅拿道與駱克道交界
22.276349,114.17602,交加里公廁,交加里與普樂里交界
22.277268,114.17266,修頓中心公廁,軒尼詩道130號修頓中心地下
22.273225,114.174467,吉安街公廁,吉安街與堅彌地街交界
22.284493,114.1745,博覽道東公廁,博覽道東
22.265681,114.000836,大嶼山梅窩碼頭公廁,大嶼山梅窩碼頭路
22.282942,114.153906,吉士笠街公廁,吉士笠街與竹興里之間
22.323401,114.160309,美利道多層停車場公廁,美利道多層停車場地下
22.282508,114.160156,天星碼頭多層停車場公廁,愛丁堡廣場及干諾道中交界
22.283917,114.157992,交易廣場公廁,交易廣場地下近巴士總站
22.272656,114.151172,舊山頂道公廁,舊山頂道近L/P27556號
22.287411,114.153314,林士街多層停車場公廁,林士街多層停車場地下
22.283961,114.152617,美輪街公廁,美輪街6號側
22.285028,114.153053,威靈頓街公廁 (男廁),威靈頓街及皇后大道中交界
22.283836,114.154906,租庇利街公廁,租庇利街及皇后大道中交界
22.279719,114.159506,皇后大道中公廁,皇后大道中，銀行街對面
22.279781,114.157525,雪廠街公廁,雪廠街16號對面
22.279247,114.154703,己連拿利公廁,己連拿利及亞畢諾道交界
22.281458,114.147919,羅便臣道公廁,羅便臣道及衛城道交界
22.277253,114.159303,香港公園室內運動場公廁,香港公園室內運動場後面
22.276828,114.157081,堅尼地道公廁,堅尼地道及花園道交界
22.275094,114.158458,麥當勞道公廁,麥當奴道48號側
22.273325,114.155975,梅道公廁,梅道及漆咸徑交界
22.285308,114.153536,永和街公廁,永和街23-27號對面
22.27325,114.13885,克頓道公廁,克頓道及夏力道交界
22.280911,114.155858,蘭桂芳公廁,蘭桂芳休憩處下層
22.288169,114.150044,港澳碼頭巴士總站公廁,港澳碼頭巴士總站側
22.283881,114.155411,中環街市北面公廁,中環街市（德輔道中出口）
22.285886,114.160631,民耀街公廁,民耀街近七號碼頭
22.271344,114.149561,凌霄閣公廁,凌霄閣第二層地庫
22.288017,114.155808,民輝街公廁,民輝街及民光街交界
22.284486,114.150519,樓梯街公廁,香港西區樓梯街面對摩羅下街
22.285706,114.149286,樂古道公廁,香港西區樂古道21-23號
22.283853,114.147006,醫院道公廁,香港西區醫院道食物環境衛生署員工宿舍地庫
22.286175,114.149733,永樂街公廁,香港西區皇后大道中345號上環市政大廈地下
22.286714,114.145958,賢居里公廁,香港西區賢居里8號
22.287508,114.143075,梅芳街公廁,香港西區梅芳街熟食市場內
22.285903,114.142106,爹核里臨時公廁,西營盤爹核里
22.280536,114.138303,旭龢道公廁,香港西區旭龢道17號對面
22.286269,114.132956,卑路乍街公廁,香港西區卑路乍街2-12號後面
22.281781,114.128667,士美非路市政大廈公廁,香港堅尼地城士美菲路12號K士美菲路市政大廈地下
22.282003,114.123078,西寧街公廁,香港西區域多利道及西寧街交界
22.284964,114.147667,磅巷公廁及浴室,香港西區磅巷及太平山街交界
22.285269,114.139194,水街公廁及浴室,香港西區水街及薄扶林道交界
22.285575,114.1361,石塘咀市政大廈公廁,香港石塘咀皇后大道西470號石塘咀市政大廈
22.269958,114.130486,薄扶林道近瑪麗醫院公廁,薄扶林道近瑪麗醫院
22.259197,114.138058,薄扶林村公廁（A座）,薄扶林村63號側
22.259522,114.138231,薄扶林村公廁（B座）,薄扶林村44號側
22.259964,114.137669,薄扶林村公廁（C座）,薄扶林村5R號對面
22.261436,114.136833,薄扶林村公廁（D座）,薄扶林村128E號對面
22.247894,114.158956,香港仔大道十六號公廁,香港仔大道16號
22.334497,114.196503,康強街公廁,新蒲崗崇齡街與康強街交界
22.336461,114.207811,牛池灣村公廁,牛池灣龍池徑1號
22.332667,114.187756,樂富公廁,聯合道與東頭村道交界
22.3354,114.193114,衙前圍村公廁,東發道衙前圍村對出
22.335255,114.204616,彩虹道巴士總站公廁,彩虹道巴士總站（彩虹村對面）
22.340458,114.202297,上元街公廁,上元街荷里活廣場地下
22.248997,114.168628,業發街公廁,近黃竹坑業發街12號
22.238294,114.196022,淺水灣巴士站公廁,近淺水灣道巴士站（淺水灣道109號對面）
22.237817,114.196217,淺水灣海灘道公廁,淺水灣海灘道近公眾停車場
22.397828,113.972975,建豐街公廁,屯門建豐街（近輕鐵河田站）
22.235053,114.198767,淺水灣公廁（近拯溺會）,淺水灣海灘道近拯溺會
22.238339,114.194831,淺水灣公廁（近海灘道十六號）,近淺水灣海灘道16號
22.212417,114.198661,中灣公廁,南灣道近中灣海灘
22.224622,114.198514,南灣公廁,南灣道近南灣海灘
22.393108,113.969292,洪祥路公廁,屯門洪祥路（公眾停車場側）
22.220447,114.213992,赤柱連合道公廁,赤柱連合道近赤柱海灘道
22.218803,114.214447,赤柱大潭村公廁,赤柱大潭村近香港航海學校
22.200494,114.213222,赤柱大街公廁,赤柱八間村近赤柱大街頭
22.230683,114.253133,石澳村公廁,石澳村近石澳後灘污水廠
22.247569,114.154864,湖南街公廁,湖南街近香港仔巴士總站
22.244489,114.155397,鴨脷洲市政大廈公廁,鴨脷洲洪聖街8號鴨脷洲市政大廈
22.237969,114.154225,利樂街公廁,鴨脷洲利樂街及利榮街交界
22.242947,114.164544,深灣道公廁,黃竹坑深灣道近水警警處
22.219156,114.212256,赤柱市政大廈公廁,赤柱市場道赤柱市政大廈
22.217711,114.212497,赤柱海濱公廁,赤柱海濱
22.398531,113.978983,井頭中村公廁,屯門井頭中村
22.397083,113.969497,建隆街公廁,屯門建隆街（近石排頭遊樂場）
22.39864,113.96997,青楊街公廁,屯門青楊街(公眾停車場側）
22.372694,113.965319,屯門碼頭公廁,屯門碼頭
22.428881,113.991908,鍾屋村公廁,鍾屋村
22.422511,113.982942,青磚圍公廁,青磚圍
22.312608,114.169314,上海街/窩打老道公廁,上海街與窩打老道交界
22.309447,114.170244,街巿街公廁及浴室,街市街1號
22.308717,114.169314,油麻地街巿公廁,甘肅街20號油麻地街市
22.308247,114.171828,加士居道公廁,加士居道與彌敦逍交界普慶廣場側
22.307353,114.168983,炮台街公廁,炮台街42號
22.306422,114.170644,白加士街公廁及浴室,白加士街107號
22.305483,114.168189,佐敦道公廁,佐敦道佐治五世公園
22.302033,114.17835,科學館道公廁,科學館道1號康宏廣場
22.295333,114.173294,中間道多層停車場公廁,中間道15號中間道多層停車場
22.293444,114.169053,尖沙咀碼頭公廁,尖沙咀碼頭
22.302269,114.175467,金巴利道尿廁,金巴利道與柯士甸路交界
22.296472,114.175825,尖沙咀東公共運輸交匯處公廁,尖沙咀東公共運輸交匯處巴士總站
22.418822,113.980025,新慶村公廁,新慶村
22.317114,114.171731,洗衣街公園公廁,洗衣街公園
22.325181,114.170661,洗衣街公廁,洗衣街188號
22.320753,114.167419,旺角道公廁,上海街661B，上海街與旺角道交界
22.318839,114.160656,博文街公廁,深旺道1號奧運站
22.316989,114.168983,砵蘭街公廁,砵蘭街193號
22.317883,114.167567,奶路臣街公廁,廣東道1024號
22.319869,114.164694,晏架街遊樂場公廁,晏架街遊樂場
22.323428,114.162178,洋松街公廁,洋松街105號
22.321117,114.172003,聯運道公廁,聯運道食環署九龍車房側
22.340167,114.138511,荔枝角政府合署公廁,荔灣道19號
22.337267,114.139831,美孚新村巴士總站公廁,美孚新村巴士總站
22.335994,114.145997,長順街公廁,長順街22號
22.335989,114.158828,東京街公廁,東京街與元州街交界
22.333097,114.161956,欽州街公廁,欽州街與元州街交界
22.330425,114.1615,鴨寮街公廁,鴨寮街與桂林街交界
22.327256,114.156378,西邨道公廁,西邨道與欽州街交界
22.326517,114.163917,大南街公廁,大南街與界限街交界
22.331014,114.164633,南昌街公廁,南昌街與元州街交界
22.333639,114.152656,醫局街公廁,醫局街555號
22.323061,114.217117,振華道公廁,牛頭角振華道巴士總站
22.315997,114.224608,崇仁街公廁,觀塘崇仁街39號旁
22.313678,114.216717,勵業街公廁,勵業街與偉業街交界
22.308531,114.221769,基業街公廁,觀塘基業里近觀塘碼頭巴士總站
22.314217,114.225344,仁愛圍公廁,觀塘仁愛圍巴士總站
22.311761,114.228128,觀塘道公廁,觀塘道巴士總站
22.292667,114.239233,鯉魚門(嶺南新村)公廁,鯉魚門、鯉魚門徑
22.300725,114.228319,茶果嶺道公廁,茶果嶺大街90號側
22.317597,114.216483,牛頭角公廁浴室,牛頭角定富街1號
22.287925,114.237483,鯉魚門馬環公廁及浴室,鯉魚門馬環村入口
22.410292,113.967828,礦山村公廁,礦山村
22.420617,113.976253,松山新慶村公廁,新慶村
22.42942,113.99384,天地人路公廁,天地人路
22.366728,114.004769,小欖新村公廁,小欖新村
22.415908,113.975103,紫田村公廁(垃圾站旁),紫田村垃圾站旁
22.353978,114.124419,葵順街公廁,葵順街近葵順熟食市場
22.349775,114.109772,長達路公廁,近長達路28號
22.348336,114.106519,長青巴士站公廁,長青巴士總站
22.350814,114.110819,長輝路公廁,近長輝路海濱花園
22.354028,114.108944,青衣新碼頭公廁,青衣新碼頭
22.361075,114.096214,擔杆山路（一號）公廁,擔杆山路近燈柱編號FB0659
22.360972,114.091019,擔杆山路（二號）公廁,擔杆山路89號側
22.370589,114.136133,大圓街公廁,大圓街近國瑞路
22.362533,114.133611,大連排道公廁,大連排道近工業街
22.355797,114.132011,新葵街公廁,新葵街近訓練中心綜合大樓
22.366561,114.135542,打磚坪街公廁,打磚坪街靠近停車場
22.363472,114.131639,港鐵葵興站公廁,近葵興政府合署
22.356717,114.128136,港鐵葵芳站公廁,新葵芳花園
22.358467,114.082078,青嶼幹線觀景台公廁,青衣西北交匯處青嶼幹線觀景台停車場
22.346911,114.142372,長源路公廁,葵涌長源路
22.376136,114.141939,葵涌上一村公廁,葵涌上一村村內
22.3519,114.0978,寮肚村公廁,青衣寮肚村內
22.376644,114.006483,掃管笏李屋村公廁,掃管笏李屋村
22.377683,114.124625,二坡圳村公廁,荃灣二坡圳村近34號
22.367319,114.118753,荃灣多層停車場大廈公廁,荃灣西樓角路荃灣地鐵站多層停車場大廈地下
22.379553,114.125244,老圍村公廁,荃灣老圍
22.365336,114.118775,橫龍街公廁,橫龍街馬角街熟食檔側
22.411433,113.976286,麒麟圍公廁,麒麟圍
22.373272,114.111664,香車街公廁,荃灣曹公坊香車街街市側
22.370908,114.118383,德華公園公廁,荃灣荃灣街市街67-95號對面
22.374317,114.105625,柴灣角街公廁,荃灣柴灣角街與海盛路交界
22.377869,114.111739,白田壩新村公廁,荃灣白田壩新村
22.365536,114.056511,青山公路13咪公廁,青山公路13咪
22.366697,114.111192,大河道公廁,荃灣大河道荃灣西鐵站入口對面
22.374125,114.125617,城門道公廁,荃灣城門道
22.332589,114.028894,欣澳公廁,欣澳公共交通交匯處
22.378189,114.122111,芙蓉山新村公廁,芙蓉山新村
22.361656,114.046978,青龍頭村公廁,新界青龍頭圓墩村
22.365356,114.054675,排棉角村公廁,荃灣排棉角村
22.394736,114.107478,川龍村公廁,荃灣川龍
22.382439,114.138889,和宜合村公廁,和宜合村
22.373925,114.097906,漢民上村公廁,荃灣漢民上村
22.380331,114.128244,老圍路公廁,荃灣老圍路
22.380086,14.12205,三疊潭村公廁,荃灣老圍路三疊潭
22.369681,114.080664,汀九村公廁,荃灣汀九村
22.381644,114.112494,光板田村公廁,荃灣荃錦公路光板田新村
22.372464,114.100653,漢民下村公廁,荃灣漢民下村
22.418756,113.984192,藍地街市公廁,藍地街市
22.37641,113.96883,湖山路公廁,湖山路
22.431536,113.992322,田心新村公廁,田心新村
22.391514,113.921681,龍鼓灘北朗公廁,龍鼓灘北朗
22.422817,113.987925,泥圍公廁(垃圾站旁),在泥圍垃圾站邊
22.440225,114.065539,錦田街市公廁,元朗錦田錦田公路錦田城門新村 (錦田街市側)
22.420494,113.980847,屯子圍公廁,屯子圍
22.395897,113.966558,楊小坑村公廁,屯門楊景路（富豪山莊側）
22.415747,113.982856,桃園圍公廁,桃園圍
22.376931,114.010467,掃管笏程屋村公廁,掃管笏程屋村
22.4225,113.988994,泥圍公廁(近遊樂場),近泥圍遊樂場
22.368033,114.059419,深井公廁,深井深井村路
22.494006,114.129158,雞嶺村公廁,上水雞嶺村雞嶺遊樂場側
22.507614,114.123567,上水東慶路公廁,上水鄉9號休憩處側
22.50875,114.123136,上水東慶路停車場公廁,上水圍東慶路（停車場）
22.500256,114.130517,掃管埔村公廁,上水新運路與智昌路交界
22.497803,114.140742,粉嶺樓公廁,粉嶺樓路粉嶺樓公園側
22.496956,114.147739,崇謙堂公廁,粉嶺崇謙堂村村口
22.509681,114.123428,上水圍圍內村公廁,上水圍圍內村上水鄉村公所側
22.5095,114.124469,上水圍莆上村公廁,上水圍莆上村近上水鄉遊樂場側
22.497422,114.136242,粉嶺圍公廁,粉嶺圍遊樂場側
22.50456,114.09993,石仔嶺公廁,上水河上鄉路近波樓路
22.496003,114.134842,粉嶺圍南公廁,粉嶺圍（南）南慶堂前新運路
22.500242,114.14805,安樂村天光墟公廁,粉嶺安樂村天光墟菜市場側
22.486,114.147022,和合石村公廁,粉嶺和興路與大埔道交界停車場
22.483608,114.144272,和興村公廁,粉嶺和興村停車場側
22.492997,114.138031,粉嶺車站路公廁,粉嶺火車站休憩處內
22.535119,114.162719,坪洋舊村公廁,沙頭角坪洋舊村休憩處內
22.50245,114.128514,龍運街公廁,上水龍運街近上水廣場巴士總站前
22.504825,114.129417,新成路公廁,上水新成路與符興街交界
22.499472,114.143258,聯昌街公廁,粉嶺聯昌街近天橋NF252
22.545289,114.224811,車坪街公廁,沙頭角車坪街沙頭角街市前
22.445256,114.029861,谷亭街公廁,元朗谷亭街
22.445467,114.033719,輕鐵總站公廁,元朗朗樂路（近新元朗中心）
22.537403,114.146692,鳳凰湖公廁,打鼓嶺鳳凰湖
22.487739,114.101417,坑頭聯安橋公廁,上水坑頭聯安橋
22.52445,114.215386,鹿頸公廁,沙頭角鹿頸路近陳鳳記士多
22.506092,114.242711,烏蛟騰公廁,沙頭角烏蛟騰
22.497742,114.152083,老圍公廁,粉嶺老圍
22.307281,114.187919,戴亞街公廁,戴亞街1號
22.321386,114.190714,馬頭角道公廁及浴室,九龍城道180號
22.316689,114.18795,九龍城道公廁,九龍城道3號
22.317656,114.193869,新碼頭街公廁,新碼頭街30號
22.308031,114.185317,機利士南路公廁,機利士南路與差館里交界
22.307117,114.183931,必嘉街公廁,必嘉街65號
22.310775,114.187172,鶴園街公廁,鶴園街12號A
22.301103,114.189644,新紅磡碼頭公廁,新紅磡碼頭
22.307361,114.187406,紅磡市政大廈公廁,馬頭圍道11號紅磡市政大廈1樓
22.330325,114.193433,石鼓壟道公廁,石鼓壟道與賈炳達道交界
22.331681,114.191764,東正道公廁,東正道賈炳達道公園側
22.329839,114.190589,龍崗道公廁,龍崗道30-32號
22.318678,114.176206,培正道公廁,培正道5號
22.32955,114.189017,九龍城市政大廈公廁,侯王道九龍城市政大廈1樓
22.33645,114.176864,九龍塘公共運輸交匯處公廁,九龍塘沙福道
22.451594,113.994503,羅屋村公廁,元朗廈村屏廈路羅屋村
22.509414,114.074044,落馬洲管制站公廁（南）,落馬洲管制站台（南）
22.505425,114.076469,落馬洲管制站公廁（北）,落馬洲管制站台（北）
22.513264,114.079836,落馬洲過境巴士站公廁,落馬洲過境巴士站
22.510672,114.080003,落馬洲暸望台公廁,落馬洲瞭望台
22.441631,114.008244,屏山新村公廁,元朗屏山屏楊里屏山新村
22.498899,114.078343,新田公廁,元朗新田青山公路-新田段
22.510692,114.080011,大橋村公廁,元朗大橋路大橋
22.380211,114.271831,宜春街公廁,宜春街
22.283414,114.270833,將軍澳工業村公廁,駿日街
22.3232,114.258214,欣景路巴士站公廁,將軍澳欣景路新都城2期巴士站
22.2956,114.292083,大坳門公廁,近大坳門停車場
22.355569,114.247833,蠔涌公廁,近蠔涌停車場
22.377439,114.272761,對面海公廁,對面海村
22.327042,114.250742,將軍澳村公廁,寶康路燈柱EA 1064對面
22.316528,114.270942,半見村公廁,田洲路近燈柱EA 1500
22.287486,114.286439,清水灣二灘公廁,近清水灣二灘停車場
22.378394,114.259661,北港村公廁,北港路燈柱No.EB31651對面
22.386867,114.269067,沙角尾公廁 (I),沙角尾村近燈柱 V8037-6
22.387267,114.2686,沙角尾公廁 (II),沙角尾村18號
22.315628,114.264692,坑口公共交通交匯處公廁,坑口地鐵站公共交通交匯處
22.308533,114.260436,將軍澳公共交通交匯處公廁,將軍澳地鐵站公共交通交匯處
22.304492,114.251981,調景嶺公共交通交匯處公廁,調景嶺地鐵站公共交通交匯處
22.377439,114.322761,對面海（翠塘）公廁,對面海（翠塘）
22.425683,114.293181,榕樹澳公廁,近榕樹澳村口燈柱V4788
22.459808,114.327311,海下公廁,海下村村口
22.433736,114.254089,泥涌碼頭公廁,泥涌碼頭側
22.338108,114.259125,大埔仔下村公廁,大埔仔下村
22.364044,114.259189,白沙灣停車場公廁,白沙灣停車場
22.392981,114.298914,大網仔公廁,大網仔停車場側
22.347344,114.352131,沙橋(糧船灣)公廁,沙橋(糧船灣)
22.33345,114.236833,井欄樹公廁,井欄樹街燈N8703(7)
22.386842,114.306997,斬竹灣公廁,斬竹灣抗日烈士紀念碑附近
22.351775,114.253133,西貢公路(南圍)公廁,西貢公路近燈柱EA9898-1
22.372053,114.259822,大涌口公廁,西貢公路與大涌上村交界
22.275956,114.295958,布袋澳公廁,布袋澳村
22.450078,114.321269,白沙澳公廁,白沙澳
22.436911,114.331942,高塘下洋公廁,高塘下洋
22.343253,114.247128,壁屋下村公廁,壁屋下村108號
22.394442,114.287942,早禾坑公廁,早禾坑
22.422189,114.351992,赤徑公廁,赤徑
22.396033,114.371333,西灣(II)公廁,西灣
22.409864,114.374481,咸田公廁,咸田
22.378897,114.264536,新安村公廁,菠蘿輋路近燈柱N2952-9
22.353361,114.258986,南圍公廁,南圍村55號側
22.388703,114.264319,南山村公廁,南山村27號側邊旱廁
22.360344,114.253769,北圍村公廁,近北圍村村口
22.444536,114.007189,坑尾頂公廁,坑尾頂
22.31605,114.25385,茅湖仔公廁,茅湖仔村46號A後面
22.410858,114.274725,企嶺下老圍公廁,企嶺下老圍
22.425042,114.2651,大洞村公廁,大洞村近燈柱VA4591-3
22.314403,114.277511,圍心村公廁,孟公屋圍心村
22.398175,114.369733,西灣(I)公廁,西灣
22.341322,114.259592,碧水新村(1)公廁,碧水新村互助委員會側
22.363061,114.257897,白沙灣教堂公廁,白沙灣教堂
22.289989,114.294719,大環頭公廁,大環頭
22.304783,114.291267,相思灣公廁,相思灣村
22.38315,114.263803,紅花村(1)公廁,北港坳路近燈柱V0983-0
22.318925,114.245097,馬游塘公廁,馬游塘村近燈柱 VA 3728
22.401025,114.323364,鰂魚湖公廁,鰂魚湖近燈柱 EA 0897
22.329092,114.264486,亞公灣公廁,亞公灣
22.313808,114.274697,孟公屋下村公廁,孟公屋下村公村
22.381156,114.263683,菠蘿輋路公廁,菠蘿輋路近燈柱 N 2767-3
22.389189,114.319003,黃宜洲公廁,黃宜洲村口
22.450197,114.169239,大埔中心公廁,大埔中心20座
22.452989,114.170161,大埔廣場公廁,大埔廣場
22.443931,114.170511,港鐵大埔墟站公廁,大埔墟港鐵站
22.454631,114.165703,大埔舊墟公廁,大埔舊墟
22.458369,114.168956,南坑公廁,大埔南坑村
22.442792,114.161361,馬窩公廁,大埔馬窩村
22.432408,113.997928,丹桂村路公廁,元朗洪水橋丹桂村路丹桂村路花園
22.449697,113.993319,錫降村公廁,元朗廈村廈尾路錫降村
22.448144,114.028567,宏業街公廁,元朗宏業東街東頭工業區
22.524344,114.208581,南涌公廁,沙頭角南涌兒童遊樂場側
22.499339,114.149808,麻笏村公廁,粉嶺麻笏村
22.550406,114.29035,吉澳(碼頭)公廁,沙頭角吉澳
22.526989,114.260042,荔枝窩公廁,沙頭角荔枝窩
22.504756,114.111992,燕崗公廁 (1),上水燕崗藍球場側
22.4983,114.152939,祠堂村公廁,粉嶺祠堂村信箱側
22.510742,114.110142,河上鄉公廁 (2),上水河上鄉(河溪學校)對面
22.485325,114.150531,何家園公廁,粉嶺何家園
22.507664,114.148253,覲龍圍公廁,粉嶺龍躍頭覲龍圍
22.504792,114.111078,燕崗公廁 (2),上水燕崗1巷6號對面
22.376094,114.17935,城河道公廁,大圍城河道31號
22.445422,114.024558,元朗西巴士總站公廁,元朗擊壤路（巴士總站側）
22.397919,114.197453,禾寮坑路30號公廁,火炭禾寮坑路30號
22.398769,114.191908,長瀝尾街公廁,火炭長瀝尾街近火炭河
22.396592,114.194461,山尾街公廁,山尾街近火炭熟食市場
22.399736,114.191025,桂地街公廁,火炭桂地街10-14號
22.416933,114.214044,馬料水吐露港公路公廁,吐露港公路近馬料水碼頭
22.369475,114.179447,田心村公廁,田心街田心村停車場
22.368589,114.1837,隔田街公廁,大圍下隔田村
22.363108,114.173525,顯田街公廁,顯田街近顯徑街
22.365619,114.176825,富健街公廁,富健街公廁
22.362458,114.171992,顯貴里公廁,顯貴里近顯徑街
22.373908,114.190003,曾大屋公廁,曾大屋村
22.380119,114.207433,牛皮沙村公廁,沙田圍路與牛皮沙街交界
22.382544,114.216464,黃泥頭村公廁,黃泥頭村
22.373656,114.189497,沙田頭村公廁,沙田頭村
22.384097,114.218553,石古壟村公廁,石古壟村
22.386469,114.183447,上排頭村公廁,上排頭村
22.380931,114.211325,小瀝源村公廁,小瀝源村公廁
22.398208,114.198181,禾寮坑村公廁,禾寮坑村
22.378836,114.206431,插桅桿村公廁,插桅桿村
22.355736,114.199311,十二笏村公廁,沙田坳道十二笏村口
22.423111,114.214222,科學園路公廁,馬料水科學園路
22.433786,114.239733,渡頭村公廁,烏溪沙渡頭村近停車場
22.395806,114.19455,火炭村公廁,火炭村近山尾街
22.381778,114.185028,田寮村公廁,田寮村
22.364089,114.215042,觀音山村公廁,觀音山村
22.448263,114.09737,竹坑村公廁,元朗八鄉粉錦路（近竹坑村村口）
22.467422,113.983842,流浮山迴旋處真空廁,元朗流浮山流浮山道
22.471636,114.232794,大尾督公廁,大埔大尾督村
22.44925,114.163039,北盛街公廁連浴室,大埔北盛街
22.444914,114.166275,泮涌公廁,大埔泮涌村
22.448961,114.160117,錦山路公廁,大埔錦山路
22.453183,114.010589,蝦尾新村公廁,元朗蝦尾新村路蝦尾新村
22.457322,114.176856,魚角公廁,大埔魚角村
22.448833,114.157164,石古壟公廁,大埔石古壟村
22.452283,114.156822,水圍公廁,大埔水圍村
22.457022,114.141364,放馬莆公廁,大埔林村放馬莆
22.455667,114.21385,三門仔村(北)公廁,大埔三門仔村
22.454644,114.214278,三門仔村(南)公廁,大埔三門仔村
22.472436,114.360131,塔門下圍公廁,大埔塔門下圍
22.467697,114.358297,塔門漁民新村北公廁,大埔塔門漁民新村
22.466875,114.358383,塔門漁民新村南公廁,大埔塔門漁民新村
22.441925,114.175622,黃宜坳公廁,大埔黃宜坳村
22.454442,114.156442,大埔頭南公廁,大埔頭村
22.4432,114.178292,美緩新村西公廁,大埔美緩新村
22.470169,114.358961,塔門碼頭公廁,大埔塔門碼頭
22.462731,114.185997,下坑村公廁,大埔下坑村
22.437339,114.127894,梧桐寨公廁,大埔梧桐寨村
22.468219,114.150331,泰亨中心圍公廁,大埔泰亨村中心圍
22.447117,114.163992,忠信里公廁,大埔忠信里
22.450492,114.144794,社山村公廁,大埔社山村
22.470189,114.210611,布心排公廁,大埔布心排村
22.434889,114.201597,創新路公廁,大埔創新路
22.442811,114.179256,美援新村東公廁,大埔美緩新村
22.429442,114.208833,科研路公廁,大埔科研路
22.544192,114.432503,東平洲公廁,東平洲
22.463369,114.146569,圍頭村公廁,圍頭村
22.458475,114.144347,坑下莆村公廁,坑下莆村
22.442428,114.147789,蓮澳村公廁,蓮澳村
22.448683,114.136042,新塘公廁,大埔新塘村
22.454483,114.141792,鍾屋村公廁,大埔鍾屋村
22.44125,114.128731,寨乪村公廁,大埔寨乪村
22.469836,114.152233,大埔泰亨村公廁,大埔泰亨村
22.426744,114.201108,大埔樟樹灘村公廁(二),大埔樟樹灘村
22.442778,114.133869,大庵村公廁,大埔大庵村
22.445819,114.128097,大芒輋村旱廁,大埔大芒輋村
22.451989,114.137656,塘面村旱廁,大埔塘面村
22.435036,114.188892,大埔滘新圍公廁,大埔大埔滘新圍
22.442567,114.123628,上白牛石村公廁,大埔上白牛石村
22.455911,114.139878,新屋仔村旱廁,大埔新屋仔村
22.45585,114.158803,大埔頭村北公廁,大埔大埔頭村
22.445983,114.132769,坪朗村旱廁,大埔坪朗村
22.422067,114.198942,大埔尾村公廁,大埔尾村
22.443836,114.137881,龍丫排村公廁,大埔龍丫排村
22.445531,114.128817,麻布尾村公廁,大埔麻布尾村
22.444428,114.127222,水窩村公廁,大埔水窩村
22.205367,114.028833,長洲中興後街公廁,長洲中興後街
22.209331,114.029469,長洲新興後街公廁,長洲新興後街
22.212364,114.027264,長洲北社街公廁,長洲北社街
22.207444,114.030256,長洲山頂道公廁,長洲山頂道
22.199608,114.024117,長洲山頂道西公廁,長洲山頂道西
22.226958,114.11115,南丫島榕樹灣公廁,南丫島榕樹灣榕樹灣大街
22.205986,114.131583,南丫島索罟灣公廁,南丫島索罟灣碼頭
22.447889,114.027653,宏業南街公廁,元朗宏業南街東頭工業區
22.284556,114.038472,坪洲永安橫街公廁,坪洲永安橫街
22.254506,113.906292,大嶼山昂平巴士站公廁,大嶼山昂平巴士站
22.253028,113.862386,大嶼山大澳巴士總站公廁,大嶼山大澳巴士總站
22.254903,113.860897,大嶼山大澳石仔埗街公廁,大嶼山大澳石仔埗街
22.253936,113.865128,大嶼山大澳太平街公廁,大嶼山大澳太平街
22.500828,114.07685,新田永平村公廁,元朗新田青山公路-新田段永平村
22.228067,113.891064,大嶼山石壁宏貝道公廁,大嶼山石壁宏貝道
22.255108,113.904622,大嶼山昂平路公廁,大嶼山昂平路
22.257778,113.862142,大嶼山寶珠潭公廁,大嶼山寶珠潭
22.271667,113.990797,大嶼山白銀鄉公廁,大嶼山白銀鄉
22.267306,113.991383,大嶼山大地塘公廁,大嶼山大地塘
22.204394,114.023325,長洲圓桌第一村公廁,長洲圓卓第一村
22.199758,114.020267,自助美經援村公廁,長洲自助美經援村
22.202894,114.022931,長洲圓桌第三村公廁,長洲圓桌第三村
22.474306,114.111842,營盤下村公廁,上水營盤新村44-64號對面
22.550481,114.270167,鴨洲公廁 (I),沙頭角鴨洲碼頭
22.527708,114.104186,料壆村(北)公廁,上水料壆村入口
22.510622,114.125536,上水圍上北村公廁,上水上水圍上北村(全采居)後面
22.54536,114.21947,担水坑村公廁,沙頭角担水坑村口
22.201247,114.019781,贊端路公廁,長洲贊端路美經援村
22.200678,114.019256,應善良美經援村公廁,長洲應善良美經援村
22.268603,113.997167,涌口村公廁,梅窩涌口村
22.272467,114.003408,東灣頭公廁,大嶼山梅窩東灣頭路
22.2434,113.976147,羅屋村公廁,大嶼山羅屋村
22.226844,113.933658,塘福村公廁（下）,大嶼山塘福村
22.221939,113.915683,水口公廁,大嶼山水口村
22.441128,114.095342,橫台山永寧里公廁,元朗八鄉橫台山散村路橫台山永寧里 (近橫台山遊樂場)
22.269219,113.931022,石門甲公廁,東涌石門甲
22.244867,113.979328,老圍村公廁,大嶼山老圍村
22.286383,113.934875,馬灣涌公廁,東涌馬灣涌
22.202464,114.026081,長洲信義第一村公廁,長洲信義第一村
22.218297,114.026967,長洲大貴灣公廁,長洲大貴灣
22.284169,114.04025,坪洲圍仔街公廁,坪洲圍仔街
22.434111,114.065125,錦上路公廁,元朗錦田東匯路錦上路西鐵轉車站
22.44185,114.028778,大棠路公廁及浴室,元朗西菁街（近富達廣場）
22.452186,114.03545,山貝村公廁,元朗山貝路山貝
22.49985,114.074111,蕃田村公廁,元朗新田蕃田村
22.444528,114.007189,坑尾村公廁,元朗屏山屏廈路坑尾村
22.447361,114.033978,南邊圍公廁,元朗元朗舊墟路南邊圍
22.447897,114.036786,十八鄉蔡屋村公廁,元朗朗日路蔡屋村
22.430708,114.095853,杜屋村公廁,元朗八鄉南慶西路
22.465403,114.051867,壆圍村公廁,元朗新田壆圍路壆圍
22.432886,114.100767,上村古廟公廁,元朗八鄉錦田公路上村
22.430092,114.093892,曾屋村公廁,元朗八鄉 錦上路上村曾屋村
22.489506,114.149753,塘坑村公廁,粉嶺塘坑村
22.481756,114.110836,蓮塘尾 (平民屋) 公廁,上水蓮塘尾 (平民屋)
22.51372,114.17582,丹竹坑公廁,粉嶺丹竹坑
22.481728,114.110797,蓮塘尾公廁,上水蓮塘尾
22.506853,114.154422,皇后山公廁,粉嶺皇后山
22.503619,114.148078,新屋村公廁,沙頭角路新屋村55號對面
22.499103,114.112286,金錢(南)公廁,上水金錢村100號對面
22.501278,114.137183,靈山村公廁,粉嶺靈山村舊粉嶺醫院後支路
22.446972,114.041625,小商新村公廁,元朗小商路小商新村
22.503533,114.103917,古洞(龍騰閣)公廁,上水古洞青山公路近行人天橋NF157
22.515708,114.110917,河上鄉新村公廁,上水河上鄉(新村)
22.509536,114.100239,古洞(東方)公廁,上水古洞馬草壟路近東方區入口
22.518386,114.124814,虎地坳公廁,上水虎地坳與文錦渡路交界
22.502203,114.123197,大頭嶺公廁,上水大頭嶺
22.432389,114.024406,田寮村公廁,元朗十八鄉僑興路田寮村
22.444289,114.095058,橫台山學校後公廁,元朗八鄉橫台山 (橫台山學校側)
22.288378,113.921208,䃟頭公廁,䃟頭村
22.199125,114.140372,榕樹下公廁,榕樹下村
22.204275,114.147256,模達村公廁,模達村
22.254767,113.911356,昂平營地公廁,昂平營地
22.295656,113.971908,大嶼山白芒村公廁,大嶼山白芒村
22.254903,113.860897,大澳石仔埗街(近碼頭)公廁,大嶼山大澳石仔埗街近碼頭
22.278511,113.936481,上嶺皮公廁,東涌上嶺皮
22.290753,113.940069,達東路公廁,東涌達東路
22.248275,113.865472,大嶼山大澳梁屋村公廁,大嶼山大澳梁屋村
22.229244,114.116542,南丫島大坪公廁,南丫島大坪村
22.205381,114.125289,南丫島盧鬚城村公廁,南丫島盧鬚城村
22.437,114.020622,欖口壆公廁,元朗山下路欖口村 (近御景園第6座)
22.289139,113.901614,東涌沙螺灣沙灘公廁,東涌沙螺灣沙灘
22.241867,113.993028,大嶼山拾塱新村公廁,大嶼山拾塱新村
22.522711,114.098472,馬草壟信義村(1)公廁,上水馬草壟信義村合作社側
22.255478,113.903222,昂平路交匯處公廁,大嶼山昂平路交匯處
22.527328,114.105828,料壆村(南)公廁,上水料壆村遊樂場對面
22.242178,113.980736,咸田新村公廁,大嶼山咸田新村
22.531714,114.202108,下麻雀嶺公廁,沙頭角下麻雀嶺
22.228536,113.930203,塘福營地公廁,大嶼山塘福營地
22.528464,114.155247,大埔田 (1) 公廁,打鼓嶺大埔田
22.527903,114.150978,大埔田 (2) 公廁,打鼓嶺大埔田
22.234192,113.957089,長沙下村公廁,大嶼山長沙下村
22.221839,113.883708,大浪灣村公廁,大嶼山大浪灣村
22.276756,113.928244,牛凹公廁,大嶼山牛凹
22.268928,113.988231,菜園村公廁,大嶼山菜園村
22.520825,114.159767,下山雞乙 (2) 公廁,打鼓嶺下山雞乙
22.277661,113.890917,深石村公廁,大嶼山深石村
22.451464,114.025969,楊屋村公廁,元朗福喜街橫洲楊屋村
22.454511,114.031231,山貝涌口村公廁,元朗山貝河東路山貝涌口村
22.49533,114.06861,米埔隴公廁,元朗新田石湖圍路米埔隴村
22.447183,114.036553,英龍圍公廁,元朗朗和路英龍圍
22.439872,114.094322,羅屋村公廁,元朗八鄉錦田公路橫台山羅屋村
22.507253,114.18015,獅頭嶺公廁,沙頭角獅頭嶺
22.524581,114.194322,上禾坑公廁,沙頭角上禾坑
22.510194,114.166689,新塘莆公廁,沙頭角路新塘莆
22.523406,114.150911,上山雞乙公廁,打鼓嶺上山雞乙
22.522169,114.179158,禾徑山公廁,沙頭角禾徑山休憩處
22.447436,114.034581,東頭村公廁,元朗十八鄉朗日路東頭村
22.543756,114.217481,木棉頭公廁,沙頭角木棉頭
22.536789,114.151503,打鼓嶺塘坊公廁,打鼓嶺塘坊
22.552547,114.182094,蓮麻坑(1)公廁,沙頭角蓮麻坑遊樂場側
22.502447,114.119772,松柏朗(南)公廁,上水松柏朗村(近客家圍)
22.492717,114.061608,米埔村公廁,元朗米埔青山公路-米埔段米埔新村
22.441089,114.061497,錦田市公廁,元朗錦田錦田公路錦田市
22.438311,114.064822,祠塘村公廁,元朗錦田錦上路祠塘村
22.506728,114.161819,粉嶺虎地排公廁,粉嶺虎地排(近日光台)
22.501481,114.150031,永寧圍公廁,粉嶺永寧圍32號對面
22.522431,114.154119,打鼓嶺下山雞乙(1)公廁,打鼓嶺山雞乙
22.47095,114.0439,大生圍(3)公廁,元朗大生圍
22.535236,114.149181,打鼓嶺李屋村公廁,打鼓嶺李屋村
22.526069,114.161778,打鼓嶺坪輋村(1)公廁,打鼓嶺坪輋村
22.4478,114.037739,黃屋村公廁,元朗朗和路黃屋村
22.496772,114.074025,青龍村公廁,元朗新田青山公路-新田段青龍村
22.467653,113.982111,球南街公廁,元朗流浮山球南街
22.444044,114.021236,水邊村公廁,元朗青山公路-屏山段水邊村
22.495742,114.048467,白鶴州公廁,元朗米埔担竿洲路担竿洲
22.45075,113.990811,新圍公廁,元朗廈村新錫路新圍
22.463206,114.020128,大井圍公廁,元朗福順街大井圍
22.443642,114.006831,屏山塘坊村公廁,元朗屏山屏廈路塘坊村
22.465161,113.988197,鰲磡村公廁,元朗流浮山民德路鰲磡
22.526469,114.185,沙頭角萬屋邊公廁,沙頭角萬屋邊
22.546992,114.291019,吉澳西澳公廁,沙頭角吉澳西澳
22.508867,114.1608,軍地村公廁,粉嶺軍地虎地排村信箱前
22.500494,114.153103,東閣圍公廁,粉嶺東閣圍101號側
22.552403,114.156097,松園下村公廁,打鼓嶺松園下村
22.429211,114.033803,大樹下公廁,元朗十八鄉大樹下西路
22.514278,114.167797,孔嶺公廁,沙頭角路孔嶺村13號前
22.489714,114.118411,安圃村公廁,上水安圃村停車場
22.451508,113.991644,新圍(士宏書室)公廁,元朗廈村新錫路新圍
22.498781,114.101128,古洞田心公廁,上水古洞田心
22.504011,114.102789,古洞(近村公所)公廁,上水古洞村公所後面
22.518286,114.176144,馬尾下村公廁,沙頭角路馬尾下村
22.447933,114.062033,水尾村公廁,元朗錦田水尾
22.457881,114.054428,錦田逢吉鄉公廁,元朗錦田逢吉鄉路逢吉鄉
22.492219,114.072883,石湖圍公廁,元朗新田石湖圍路石湖圍
22.447558,114.020494,屏山鳳池村公廁,元朗宏達路鳳池村
22.435589,114.017953,欖口村公廁,元朗十八鄉山下路欖口村
22.423614,114.069622,八鄉田心村公廁,元朗八鄉錦莆路田心村
22.422778,114.031081,大棠路南坑排公廁,元朗十八鄉大棠路紅棗田村
22.443897,114.060825,錦田錦慶圍北公廁,元朗錦田治河路錦慶圍
22.439186,114.063411,錦田吉慶圍公廁,元朗錦田公路吉慶圍
22.447592,113.991719,炮圍(包圍)公廁,元朗廈村錫降圍路錫降圍
22.49773,114.07573,蕃田村公廁,元朗新田青山公路-新田段蕃田村
22.428067,114.086489,蓮花地公廁,元朗八鄉錦上路蓮花地
22.432897,114.015828,山下村(1)公廁,元朗十八鄉山下路山下村
22.433567,114.074431,金錢圍公廁,元朗八鄉金水路金錢圍
22.540139,114.147428,打鼓嶺新村公廁,坪輋路打鼓嶺新村
22.523019,114.162042,坪輋村(2)公廁,沙頭角坪輋路與五洲路交界
22.535586,114.145136,週田公廁 (2),打鼓嶺週田村公所側
22.538906,114.133633,木湖村公廁,打鼓嶺木湖村
22.520681,114.176389,大塘湖公廁,沙頭角大塘湖
22.507839,114.102347,古洞(石仔嶺) 公廁,上水石仔嶺、馬草壟路、河上鄉路交匯處
22.492719,114.096653,麒麟村公廁,上水麒麟村
22.535883,114.144814,週田(1)公廁,打鼓嶺週田
22.548144,114.222053,山咀公廁,沙頭角山咀村休憩處側
22.528317,114.237744,谷埔(老圍) 公廁,沙頭角谷埔
22.535178,114.132489,新屋嶺公廁,上水新屋嶺村1巷18號側
22.523197,114.096994,上水馬草壟信義村(2)公廁,上水馬草壟信義村近19號
22.504744,114.104769,鳯崗(塘角)公廁,上水鳯崗(塘角)
22.441475,114.056678,錦田高埔村公廁,元朗錦田錦田公路高埔村
22.441336,114.063867,錦田泰康圍公廁,元朗錦田錦田公路泰康圍
22.453092,113.993714,廈村東頭村公廁,元朗廈村屏廈路東頭村
22.464642,113.986575,新慶村公廁,元朗流浮山流浮山道新慶村
22.416125,114.023861,大棠谷公廁,元朗十八鄉僑興路大棠村
22.449333,113.992347,錫降圍公廁,元朗廈村廈尾路錫降圍
22.438675,114.005903,灰沙圍公廁 (生化),元朗屏山青山公路-屏山段灰沙圍
22.425217,114.029767,紅棗田村公廁,元朗十八鄉大棠路紅棗田村
22.440019,114.024047,馬田村公廁,元朗十八鄉馬田路馬田村
22.425619,114.085667,牛徑村公廁,元朗八鄉錦上路牛徑
22.472353,114.059731,新田福興里公廁,元朗新田新潭路
22.507603,114.080861,新田潘屋村公廁,元朗落馬洲落馬洲路潘屋村
22.513064,114.079222,新田落馬洲村公廁,元朗新田落馬洲落馬洲路
22.460367,114.055786,錦田華盛村公廁,元朗錦田新潭路華盛村
22.476667,114.000269,輞井村(2)公廁,元朗流浮山深灣路輞井村
22.417997,114.025208,大棠村公廁,元朗十八鄉大棠路大棠村
22.423647,114.033342,南坑村公廁,元朗十八鄉南坑村
22.437078,114.070253,吳家村(內)公廁,元朗八鄉錦上路吳家村
22.446656,114.097019,新隆圍,元朗八鄉粉錦公路新隆圍
22.458419,114.001975,天水圍公共交通運輸交匯處公廁,天水圍天恩路
22.425364,114.08385,水盞田村公廁,元朗八鄉錦上路水盞田
22.502181,114.074381,仁壽圍公廁,元朗新田青山公路-新田段仁壽圍
22.436792,113.993967,新李屋村公廁,元朗洪水橋田廈路新李屋村
22.426067,114.031261,水蕉老圍(2)公廁,元朗十八鄉大棠路水蕉老圍
22.471164,114.042953,大生圍(2)公廁,元朗大生圍
22.431069,114.096067,八鄉中心村(石頭圍)公廁,元朗八鄉南慶東路上村石頭圍
22.477189,114.056258,竹園村下竹園公廁,元朗青山公路-潭尾段竹園村
22.448997,114.014508,永寧村公廁,元朗屏山庸園路永寧村
22.433467,114.016431,屏山山下村公廁,元朗十八鄉山下路山下村
22.451714,114.099483,八鄉水澗石村公廁,元朗八鄉粉錦公路水澗石
22.442519,114.042678,十八鄉楊屋村公廁,元朗凹頭青山公路-元朗段楊屋村
22.435419,113.992803,田心村公廁,元朗洪水橋田廈路田心
22.448478,114.093675,下輋西公廁,元朗八鄉粉錦路下輋村
22.442922,114.061603,錦慶圍公廁,元朗錦田治河路錦慶圍
22.438569,114.026283,馬田壆公廁,元朗十八鄉僑興路馬田壆
22.464878,114.02035,吳屋村公廁,元朗橫州福順街吳屋村
22.463414,114.018622,盛屋村公廁,元朗福順街盛屋村
22.429319,114.025411,木橋頭村公廁,元朗十八鄉僑興路木橋頭村
22.418456,113.98185,屯子圍籃地菜站公廁,屯子圍近籃地菜站
22.446769,114.038108,大圍村公廁,元朗大圍村
22.48698,113.99903,流浮山沙橋村上灣公廁,元朗流浮山深灣路沙橋村
22.443772,114.027978,康景街公廁,元朗康景街（小巴站側）
22.443406,114.032797,鳳翔路公廁,元朗鳳翔路 (近鳳琴街體育館)
22.438856,114.0676,錦田波地公廁,元朗錦田錦田波地路
22.448147,113.960242,白泥村公所 (旅遊點) 公廁,元朗稔灣路上白泥
22.421469,114.021942,白沙村公廁,元朗十八鄉僑興路白沙村
22.43425,113.948617,中白泥公廁,元朗流浮山稔灣路近鰲墈石
22.448533,114.094531,下輋東公廁,元朗八鄉粉錦路下輋村
22.426919,113.943189,流浮山下白泥村公廁,元朗流浮山稔灣路下白泥
22.450739,113.988208,廈村祥降圍公廁,元朗廈村祥降圍
22.464736,113.980503,坑口村公廁,元朗流浮山深灣路坑口村
22.452006,113.991994,巷尾村公廁,元朗廈村廈尾路巷尾村
22.434753,113.994281,洪水橋公廁及公共浴室,元朗洪水橋田心路
22.425253,114.077586,錦田元崗村公廁,元朗八鄉錦上路元崗
22.438739,113.949036,流浮山上白泥鴨仔坑公廁,元朗流浮山稔灣路鰲磡石
22.461656,113.980431,流浮山上白泥沙江廟公廁,元朗流浮山深灣路沙江村
22.502772,114.081486,落馬洲公共交通交匯處公廁,元朗新田新深路
22.4773,114.073214,牛潭尾東公廁,元朗牛潭尾牛潭尾路
22.431806,114.104158,八鄉上村公廁,元朗八鄉林錦公路
22.431078,114.094989,八鄉上村永慶圍公廁,元朗八鄉南慶西路上村中心村
22.442247,114.003519,屏山洪屋村公廁,元朗屏山橋洪路洪屋村
22.488678,113.999342,沙橋下灣公廁,元朗流浮山深灣路沙橋村
22.446947,114.006369,上墇圍公廁,元朗屏山屏廈路上章圍
22.429753,114.0329,大樹下西路祟正新村公廁,元朗十八鄉大樹下西路
22.426989,113.997447,丹桂村(英賢小學)公廁,元朗洪水橋丹桂村路丹桂村 (近英賢學校)
22.539192,114.150919,簡頭圍公廁,打鼓嶺簡頭圍
22.351967,114.106811,信義村公廁,青衣信義村
22.389722,113.968733,業旺路公廁,業旺路
22.37545,113.95704,白角村公廁,白角村
22.3729,114.18082,大圍公共交通交匯處公廁,馬鞍山鐵路大圍站外
22.41376,114.21398,馬料水海濱公廁,馬料水白石角
22.453503,114.055542,沙埔村公廁,元朗錦田沙埔村路沙埔村
22.504486,114.117697,上水松柏塱(北)公廁,上水松柏塱村公所對面
22.345308,114.251458,打鼓嶺新村公廁,打鼓嶺新村3A號
22.310867,114.284836,上洋公廁,上洋村
22.291878,113.977572,牛牯塱村公廁,大嶼山牛牯塱村
22.279669,113.931286,東涌侯王廟公廁,東涌侯王廟
22.517744,114.170944,嶺仔村公廁,粉嶺嶺仔村
22.527111,114.124733,沙嶺長甫頭公廁,上水沙嶺長甫頭
22.496277,114.103942,坑頭路公廁,上水坑頭路100號對面
22.528531,114.224961,鳳坑公廁,沙頭角鳳坑
22.447442,114.031589,西邊圍(1)公廁,元朗西溪路西邊圍
22.471272,114.042058,大生圍(1)公廁,元朗大生圍
22.43425,113.948608,中白泥(2)公廁,流浮山稔灣路 (近下白泥)
22.431606,114.083622,水流田村公廁,元朗八鄉水流田
22.441636,113.995739,石埔村公廁,元朗廈村石埗路石埗村
22.447667,113.959,流浮山白泥近菜站公廁,元朗流浮山白泥
22.492433,114.068236,米埔隴村公廁,元朗新田米埔隴路米埔隴村
22.32125,114.268306,水邊村公廁,水邊村近燈柱
22.376889,114.301333,鹽田仔公廁,鹽田仔
22.443194,114.004639,橋頭圍公廁,元朗 屏山 橋洪路 橋頭圍
22.455028,114.026778,福慶村公廁,元朗橫洲福慶村
22.378028,114.117944,芙蓉山姚大公廁,新界荃灣芙蓉山路
22.363306,114.045944,龍如路公廁,青龍頭龍如路近圓墩村
22.520417,114.215222,鹿頸(黃屋)公廁,沙頭角鹿頸(黃屋)
22.534417,114.130833,文錦渡車輛輪候處公廁,文錦渡車輛輪候處
22.426222,114.199083,樟樹灘村(一)公廁,大埔樟樹灘村
22.463361,114.206667,船灣李屋公廁,大埔船灣李屋
22.499833,114.098778,古洞(水塘坑)公廁,上水古洞南路
22.508167,114.136056,石湖新村公廁,上水石湖新村(近梧桐河)
22.435472,114.028667,禮修村公廁,元朗 十八鄉 大棠路 禮修村
22.450778,114.097111,上輋村公廁,元朗八鄉粉錦公路上輋
22.430972,114.262333,輋下村公廁,輋下村
22.3845,114.2675,躉場上村公廁,躉場上村近燈柱
22.416361,114.270194,企嶺下新圍公廁,Kei Ling Ha Sun Wai
22.235472,114.113028,北角村公廁,南丫島北角村
22.517694,114.270861,三椏公廁,沙頭角三椏
22.418417,114.022444,黃泥墩(1)公廁,元朗十八鄉水蕉新村路黃泥墩村
22.4595,113.990056,鳳降村入口公廁,元朗廈村屏廈路
22.553222,114.288556,吉澳漁民村公廁,沙頭角吉澳漁民村
22.527583,114.157278,元下村公廁,打鼓嶺元下村
22.518028,114.174111,馬尾下公廁,沙頭角路馬尾下村
22.528167,114.199028,下禾坑公廁,沙頭角下禾坑
22.408333,114.237556,馬鞍山村山頂公廁,馬鞍山村山頂近停車場
22.473194,113.989333,虎草村公廁,元朗 流浮山 深灣路
22.380472,113.957583,散石灣公廁,散石灣遷徙區1期
22.520472,114.183722,萊洞公廁,沙頭角萊洞
22.476417,114.10275,蕉徑彭屋公廁,上水蕉徑彭屋
22.425889,114.037861,塘頭埔村公廁,元朗十八鄉大樹下東路塘頭埔村
22.369917,114.058361,深井商業新村公廁,新界深井深井商業新村
22.381639,114.1125,光板田村(二段)公廁,新界荃灣荃錦公路光板田新村
22.52075,114.171278,橫山腳新村公廁,沙頭角橫山腳新村
22.518139,114.207667,南涌(羅屋)公廁,沙頭角南涌(羅屋)
